state,state_code,organization_name,office_type,address,city,zip_code,phone,email,website,services_offered,languages_spoken,appointment_required,walk_in_hours,notes
Alabama,AL,VFW Department of Alabama,State HQ,2520 Grants Mill Road,Birmingham,35226,(205) 822-5912,alabamavfw@gmail.com,https://vfwal.org,"Claims assistance, Benefits counseling, Employment services",English,No,Mon-Fri 9:00-4:00,State headquarters with full-service support
Alabama,AL,American Legion Department of Alabama,State HQ,120 North Jackson Street,Montgomery,36104,(334) 262-1176,adjutant@alalegion.org,https://www.alalegion.org,"VA claims, Employment, Community outreach",English,Yes,By appointment only,Contact for appointment scheduling
Alabama,AL,DAV Department of Alabama,State HQ,810 Governors Drive,Huntsville,35801,(256) 539-2539,davstateoffice@gmail.com,https://davwebsites.dav.org/AL,"VA claims, Benefits assistance","English, Spanish",No,Mon-Fri 8:00-4:30,Free claims assistance for all veterans
Alabama,AL,AMVETS Department of Alabama,State HQ,1419 2nd Avenue North,Birmingham,35203,(205) 251-0025,amvetsal@gmail.com,https://amvetsal.org,"Benefits, Employment, Transition assistance",English,No,Mon-Fri 9:00-5:00,Walk-ins welcome
Alabama,AL,VFW Post 1114,Local Post,2810 Pepperell Parkway,Opelika,36801,(334) 749-5618,vfwpost1114@gmail.com,https://vfwpost1114.org,"Local community support, VA referrals",English,No,Wed-Sat 12:00-8:00,Active post with veteran services
Alabama,AL,American Legion Post 555,Local Post,215 West Spring Street,Tuscaloosa,35401,(205) 758-0555,post555al@legion.org,https://alpost555.org,"Community service, Benefits referrals",English,No,Mon-Fri 10:00-6:00,Monthly veteran benefits meetings
Alabama,AL,DAV Mobile Chapter,Regional Office,2050 Springhill Avenue,Mobile,36607,(251) 478-2828,davmobile@yahoo.com,https://davmobile.org,"VA claims, Transportation assistance","English, Spanish",Yes,Tue-Thu 9:00-3:00,Call ahead for appointments
Alabama,AL,VVA Alabama State Council,State HQ,PO Box 361243,Birmingham,35236,(205) 243-8840,vvaalabamasc@gmail.com,https://vvaalabama.org,"VA benefits, PTSD support, Agent Orange claims",English,Yes,By appointment,Vietnam-era veterans focus
Alabama,AL,Alabama Department of Veterans Affairs,State Agency,100 North Union Street Suite 850,Montgomery,36130,(334) 242-5077,info@va.alabama.gov,https://va.alabama.gov,"State benefits, Claims assistance, Cemetery services","English, Spanish",Yes,Mon-Fri 8:00-5:00,State veterans service office
Alabama,AL,AMVETS Post 1 Birmingham,Local Post,1419 2nd Avenue North,Birmingham,35203,(205) 328-1943,amvetspost1@yahoo.com,https://amvetspost1.org,"Community outreach, VA referrals",English,No,Mon-Fri 12:00-6:00,Active post with regular meetings
Alaska,AK,VFW Department of Alaska,State HQ,2435 E Tudor Road,Anchorage,99507,(907) 563-3103,info@alaskavfw.org,https://alaskavfw.org,"Claims assistance, Benefits counseling, Employment services",English,No,Mon-Fri 9:00-5:00,Statewide coordination of posts
Alaska,AK,American Legion Department of Alaska,State HQ,520 E 4th Avenue,Anchorage,99501,(907) 278-8598,adjutant@alaskalegion.org,https://www.alaskalegion.org,"VA claims, Employment, Community support",English,Yes,By appointment,State headquarters office
Alaska,AK,DAV Alaska Chapter 1,State HQ,2925 DeBarr Road Room E406,Anchorage,99508,(907) 257-4830,davakalaska@gmail.com,https://davak.org,"VA claims, Benefits assistance","English, Native Alaskan",No,Mon-Fri 8:00-4:00,Free VA claims assistance
Alaska,AK,AMVETS Alaska Post 1,Local Post,5401 Petersburg Street,Anchorage,99507,(907) 338-8383,amvetsalaska@gmail.com,https://amvetsal.org,"Benefits, Employment, Transition",English,No,Mon-Sat 10:00-6:00,Community service programs
Alaska,AK,VFW Post 10221 Fairbanks,Local Post,520 1st Avenue,Fairbanks,99701,(907) 456-4129,vfw10221@yahoo.com,https://vfwpost10221.org,"Local support, VA referrals",English,No,Wed-Sun 12:00-10:00,Active veteran community
Alaska,AK,American Legion Post 28 Juneau,Local Post,1915 Lemon Creek Drive,Juneau,99801,(907) 789-7536,legionpost28@gmail.com,https://alpost28.org,"Community service, Benefits info",English,No,Mon-Fri 11:00-7:00,Southeast Alaska coverage
Alaska,AK,Alaska Department of Military & Veterans Affairs,State Agency,PO Box 5800,Fort Richardson,99505,(907) 428-6016,info@alaska.dmva.gov,https://veterans.alaska.gov,"State benefits, Education, Healthcare","English, Native Alaskan",Yes,Mon-Fri 8:00-4:30,State veterans services
Alaska,AK,VVA Alaska Chapter 1,Local Post,3126 Lakeshore Drive,Anchorage,99517,(907) 277-1617,vvaak@gmail.com,https://vvaak.org,"Benefits, Agent Orange, PTSD support",English,Yes,By appointment,Vietnam veterans assistance
Alaska,AK,VFW Post 9365 Ketchikan,Local Post,126 Front Street,Ketchikan,99901,(907) 225-4858,vfwpost9365@gmail.com,https://vfwpost9365.org,"Community service, VA referrals",English,No,Tue-Sat 1:00-8:00,Southeast Alaska post
Alaska,AK,Disabled American Veterans Kodiak,Regional Office,318 Mill Bay Road,Kodiak,99615,(907) 486-3216,davkodiak@gmail.com,https://davkodiak.org,"Claims assistance, Transportation","English, Native Alaskan",Yes,Mon-Wed 9:00-4:00,Island community support
Arizona,AZ,VFW Department of Arizona,State HQ,4747 North 7th Street,Phoenix,85014,(602) 277-3822,office@vfwaz.org,https://vfwaz.org,"Claims assistance, Benefits counseling, Employment","English, Spanish",No,Mon-Fri 8:00-5:00,State headquarters
Arizona,AZ,American Legion Department of Arizona,State HQ,4701 North 19th Avenue Suite 200,Phoenix,85015,(602) 264-7706,azlegion@azlegion.org,https://www.azlegion.org,"VA claims, Employment, Advocacy","English, Spanish",Yes,By appointment,Statewide coordination
Arizona,AZ,DAV Department of Arizona,State HQ,4462 Houston Avenue,Macon,31206,(520) 792-1450,davarizona@gmail.com,https://az-dav.org,"VA claims, Benefits assistance","English, Spanish, Native American",No,Mon-Fri 8:00-4:30,Free claims assistance
Arizona,AZ,AMVETS Department of Arizona,State HQ,2601 East Southern Avenue Suite 101,Phoenix,85042,(602) 243-7788,amvetsaz@gmail.com,https://amvetsaz.org,"Benefits, Employment, Transition",English,No,Mon-Fri 9:00-5:00,Full veteran services
Arizona,AZ,VFW Post 720 Tucson,Local Post,3201 East Veterans Boulevard,Tucson,85713,(520) 326-5124,post720@vfwtucson.org,https://vfwpost720.org,"Local support, VA claims","English, Spanish",No,Mon-Fri 10:00-8:00,Large active post
Arizona,AZ,American Legion Post 1 Phoenix,Local Post,4701 North 19th Avenue,Phoenix,85015,(602) 249-1313,alpost1@yahoo.com,https://azpost1.org,"Community service, Benefits","English, Spanish",No,Mon-Fri 9:00-6:00,Oldest post in Arizona
Arizona,AZ,DAV Scottsdale Chapter,Regional Office,10555 North 108th Street,Scottsdale,85259,(480) 451-3929,davscottsdale@gmail.com,https://davscottsdale.org,"VA claims, Medical transport","English, Spanish",Yes,Tue-Thu 9:00-3:00,Northeast Valley service
Arizona,AZ,VFW Post 1633 Mesa,Local Post,245 West 6th Avenue,Mesa,85210,(480) 964-7959,vfwpost1633@gmail.com,https://vfwpost1633.org,"Community service, Benefits referrals",English,No,Mon-Sat 11:00-9:00,East Valley location
Arizona,AZ,VVA Arizona State Council,State HQ,PO Box 10084,Phoenix,85064,(602) 955-2699,vvaarizona@gmail.com,https://vvaaz.org,"Benefits, Agent Orange, PTSD","English, Spanish",Yes,By appointment,Vietnam veterans services
Arizona,AZ,Arizona Department of Veterans Services,State Agency,3839 North 3rd Street Suite 209,Phoenix,85012,(602) 255-3373,info@azdvs.gov,https://dvs.az.gov,"State benefits, Claims, Cemetery services","English, Spanish, Native American",Yes,Mon-Fri 8:00-5:00,State veterans office
Arkansas,AR,VFW Department of Arkansas,State HQ,4210 East Kiehl Avenue,Sherwood,72120,(501) 834-8392,arvfwhq@gmail.com,https://vfwar.org,"Claims assistance, Benefits counseling, Employment",English,No,Mon-Fri 8:00-4:30,State headquarters
Arkansas,AR,American Legion Department of Arkansas,State HQ,1415 West 3rd Street,Little Rock,72201,(501) 375-3443,arlegion@arlegion.org,https://www.arlegion.org,"VA claims, Employment, Community",English,Yes,By appointment,State service office
Arkansas,AR,DAV Arkansas Department,State HQ,PO Box 55310,Little Rock,72215,(501) 324-6415,davarkansas@gmail.com,https://davarkansas.org,"VA claims, Benefits assistance","English, Spanish",No,Mon-Fri 8:00-4:00,Free claims assistance
Arkansas,AR,AMVETS Arkansas Department,State HQ,215 Main Street,Jacksonville,72076,(501) 985-2658,amvetsar@gmail.com,https://amvetsar.org,"Benefits, Employment, Transition",English,No,Mon-Fri 9:00-5:00,Veteran support services
Arkansas,AR,VFW Post 5689 Fort Smith,Local Post,12000 Phoenix Avenue,Fort Smith,72916,(479) 646-2978,vfwpost5689@gmail.com,https://vfwpost5689.org,"Local support, VA referrals",English,No,Mon-Sat 11:00-10:00,Western Arkansas
Arkansas,AR,American Legion Post 1 Little Rock,Local Post,1415 West 3rd Street,Little Rock,72201,(501) 372-1415,arpost1@legion.org,https://arpost1.org,"Community service, Benefits",English,No,Mon-Fri 10:00-7:00,State capital location
Arkansas,AR,DAV Fayetteville Chapter,Regional Office,1100 North College Avenue,Fayetteville,72703,(479) 444-7940,davfayetteville@gmail.com,https://davfayetteville.org,"VA claims, Medical transport",English,Yes,Tue-Thu 9:00-3:00,Northwest Arkansas
Arkansas,AR,VFW Post 9644 Jonesboro,Local Post,2805 East Nettleton Avenue,Jonesboro,72401,(870) 932-4900,vfwpost9644@yahoo.com,https://vfwpost9644.org,"Community service, Benefits",English,No,Wed-Sun 12:00-8:00,Northeast Arkansas
Arkansas,AR,VVA Arkansas Chapter 1,Local Post,PO Box 250881,Little Rock,72225,(501) 920-4088,vvaarkansas@gmail.com,https://vvaar.org,"Benefits, Agent Orange claims, PTSD",English,Yes,By appointment,Vietnam veterans focus
Arkansas,AR,Arkansas Department of Veterans Affairs,State Agency,2200 Fort Roots Drive Building 65,North Little Rock,72114,(501) 370-3820,info@veterans.arkansas.gov,https://www.veterans.arkansas.gov,"State benefits, Claims, Healthcare",English,Yes,Mon-Fri 8:00-4:30,State veterans services
California,CA,VFW Department of California,State HQ,9136 Elk Grove Boulevard Suite 100,Elk Grove,95624,(916) 509-8712,office@vfwca.org,https://vfwca.org,"Claims assistance, Benefits counseling, Employment","English, Spanish, Tagalog, Vietnamese",No,Mon-Fri 8:00-5:00,State headquarters
California,CA,American Legion Department of California,State HQ,1601 7th Street,Sanger,93657,(559) 875-8387,legionmail@calegion.org,https://calegion.org,"VA claims, Employment, Advocacy","English, Spanish",Yes,By appointment,Statewide coordination
California,CA,DAV Department of California,State HQ,1111 Howe Avenue Suite 390,Sacramento,95825,(916) 622-2832,davcalifornia@gmail.com,https://davca.org,"VA claims, Benefits assistance","English, Spanish, Vietnamese, Tagalog",No,Mon-Fri 8:00-4:30,Free claims assistance
California,CA,AMVETS Department of California,State HQ,PO Box 2788,Turlock,95381,(559) 688-3407,deptamvetsca@gmail.com,https://amvetsca.org,"Benefits, Employment, Transition","English, Spanish",No,Mon-Fri 9:00-5:00,Full veteran services
California,CA,VFW Post 9934 San Diego,Local Post,4370 Twain Avenue,San Diego,92120,(619) 284-5474,post9934@vfwsandiego.org,https://vfwpost9934.org,"Local support, VA claims","English, Spanish",No,Mon-Fri 10:00-9:00,Large metropolitan post
California,CA,American Legion Post 43 Los Angeles,Local Post,2450 South Grand Avenue,Los Angeles,90007,(213) 748-2419,alpost43@sbcglobal.net,https://lapost43.org,"Community service, Benefits","English, Spanish, Korean",No,Mon-Fri 9:00-6:00,Downtown LA location
California,CA,DAV San Francisco Chapter,Regional Office,401 Van Ness Avenue,San Francisco,94102,(415) 441-4084,davsf@gmail.com,https://davsf.org,"VA claims, Medical transport","English, Spanish, Chinese, Tagalog",Yes,Mon-Thu 8:00-4:00,Bay Area coverage
California,CA,VFW Post 1679 Sacramento,Local Post,8990 Kruithof Way,Fair Oaks,95628,(916) 966-1679,vfwpost1679@gmail.com,https://vfwpost1679.org,"Community service, Benefits",English,No,Mon-Sat 11:00-10:00,State capital area
California,CA,VVA California State Council,State HQ,13760 Cordary Avenue,Hawthorne,90250,(310) 676-7270,vvacalsc@gmail.com,https://vvacalsc.com,"Benefits, Agent Orange, PTSD","English, Spanish",Yes,By appointment,Vietnam veterans services
California,CA,CalVet - California Department of Veterans Affairs,State Agency,1227 O Street Room 300,Sacramento,95814,(800) 952-5626,info@calvet.ca.gov,https://www.calvet.ca.gov,"State benefits, Claims, Home loans, Healthcare","English, Spanish, Tagalog, Vietnamese",Yes,Mon-Fri 8:00-5:00,State veterans department
Colorado,CO,VFW Department of Colorado,State HQ,7465 East 1st Avenue Suite D,Denver,80230,(303) 421-1630,office@vfwcolorado.org,https://vfwco.org,"Claims assistance, Benefits counseling, Employment","English, Spanish",No,Mon-Fri 8:00-4:30,State headquarters
Colorado,CO,American Legion Department of Colorado,State HQ,7465 East 1st Avenue Suite D,Denver,80230,(303) 366-5201,info@coloradolegion.org,https://www.coloradolegion.org,"VA claims, Employment, Community","English, Spanish",Yes,By appointment,State service office
Colorado,CO,DAV Colorado Department,State HQ,PO Box 6800,Denver,80206,(303) 355-7999,davcolorado@gmail.com,https://davcolorado.org,"VA claims, Benefits assistance","English, Spanish",No,Mon-Fri 8:00-4:00,Free claims assistance
Colorado,CO,AMVETS Colorado Department,State HQ,2805 South Circle Drive Suite 120,Colorado Springs,80906,(719) 632-0063,amvetsco@gmail.com,https://amvetsco.org,"Benefits, Employment, Transition",English,No,Mon-Fri 9:00-5:00,Veteran support services
Colorado,CO,VFW Post 4171 Colorado Springs,Local Post,430 East Pikes Peak Avenue,Colorado Springs,80903,(719) 632-9874,vfwpost4171@gmail.com,https://vfwpost4171.org,"Local support, VA referrals",English,No,Mon-Sat 11:00-9:00,Southern Colorado
Colorado,CO,American Legion Post 1 Denver,Local Post,1370 North Grant Street,Denver,80203,(303) 832-4676,alpost1denver@gmail.com,https://denverpost1.org,"Community service, Benefits","English, Spanish",No,Mon-Fri 10:00-7:00,State capital location
Colorado,CO,DAV Fort Collins Chapter,Regional Office,600 South Lemay Avenue,Fort Collins,80524,(970) 221-5176,davfortcollins@gmail.com,https://davfortcollins.org,"VA claims, Medical transport",English,Yes,Tue-Thu 9:00-3:00,Northern Colorado
Colorado,CO,VFW Post 3917 Boulder,Local Post,1919 Broadway,Boulder,80302,(303) 442-3917,vfwpost3917@gmail.com,https://vfwpost3917.org,"Community service, Benefits",English,No,Wed-Sun 12:00-8:00,Boulder County
Colorado,CO,VVA Colorado State Council,State HQ,PO Box 102145,Denver,80250,(303) 758-8387,vvacolorado@gmail.com,https://vvaco.org,"Benefits, Agent Orange, PTSD","English, Spanish",Yes,By appointment,Vietnam veterans focus
Colorado,CO,Colorado Department of Military and Veterans Affairs,State Agency,1355 South Colorado Boulevard Suite C-107,Denver,80222,(303) 284-6077,info@dmva.state.co.us,https://dmva.colorado.gov,"State benefits, Claims, Cemetery services","English, Spanish",Yes,Mon-Fri 8:00-5:00,State veterans office
Connecticut,CT,VFW Department of Connecticut,State HQ,1 Industrial Drive,Rocky Hill,06067,(860) 436-9986,office@ctvfw.org,https://ctvfw.org,"Claims assistance, Benefits counseling, Employment",English,No,Mon-Fri 8:30-4:30,State headquarters
Connecticut,CT,American Legion Department of Connecticut,State HQ,287 West Street,Rocky Hill,06067,(860) 436-9986,info@ctlegion.org,https://www.ctlegion.org,"VA claims, Employment, Community",English,Yes,By appointment,State service office
Connecticut,CT,DAV Connecticut Department,State HQ,1111 Country Club Road,Middletown,06457,(860) 616-3603,davconnecticut@gmail.com,https://davct.org,"VA claims, Benefits assistance","English, Spanish",No,Mon-Fri 8:00-4:00,Free claims assistance
Connecticut,CT,AMVETS Connecticut Department,State HQ,35 Cold Spring Road Suite 319,Rocky Hill,06067,(860) 436-8719,amvetsct@gmail.com,https://amvetsct.org,"Benefits, Employment, Transition",English,No,Mon-Fri 9:00-5:00,Veteran support services
Connecticut,CT,VFW Post 2150 Hartford,Local Post,1 Corbin Drive,West Hartford,06110,(860) 232-2916,vfwpost2150@gmail.com,https://vfwpost2150.org,"Local support, VA referrals",English,No,Mon-Sat 11:00-9:00,Greater Hartford area
Connecticut,CT,American Legion Post 16 New Haven,Local Post,317 Forbes Avenue,New Haven,06512,(203) 467-2929,alpost16nh@gmail.com,https://alpost16.org,"Community service, Benefits",English,No,Mon-Fri 10:00-6:00,South central CT
Connecticut,CT,DAV Bridgeport Chapter,Regional Office,940 North Avenue,Bridgeport,06606,(203) 335-7718,davbridgeport@gmail.com,https://davbridgeport.org,"VA claims, Medical transport",English,Yes,Tue-Thu 9:00-3:00,Fairfield County
Connecticut,CT,VFW Post 591 Waterbury,Local Post,60 Anawan Street,Waterbury,06708,(203) 754-2591,vfwpost591@yahoo.com,https://vfwpost591.org,"Community service, Benefits",English,No,Wed-Sun 12:00-8:00,West central CT
Connecticut,CT,VVA Connecticut State Council,State HQ,PO Box 5422,Hamden,06518,(203) 248-8387,vvaconnecticut@gmail.com,https://vvact.org,"Benefits, Agent Orange, PTSD",English,Yes,By appointment,Vietnam veterans services
Connecticut,CT,Connecticut Department of Veterans Affairs,State Agency,287 West Street,Rocky Hill,06067,(860) 616-3603,ct.dva@ct.gov,https://portal.ct.gov/DVA,"State benefits, Claims, Healthcare",English,Yes,Mon-Fri 8:30-4:30,State veterans department
Delaware,DE,VFW Department of Delaware,State HQ,PO Box 1165,Dover,19903,(302) 734-1776,vfwde@gmail.com,https://vfwde.org,"Claims assistance, Benefits counseling, Employment",English,No,Mon-Fri 9:00-4:00,State headquarters
Delaware,DE,American Legion Department of Delaware,State HQ,1524 Jefferson Street,Wilmington,19801,(302) 656-9214,delhq@delaware-legion.org,https://www.delaware-legion.org,"VA claims, Employment, Community",English,Yes,By appointment,State service office
Delaware,DE,DAV Delaware Department,State HQ,1601 Kirkwood Highway,Wilmington,19805,(302) 994-2511,davdelaware@gmail.com,https://davde.org,"VA claims, Benefits assistance",English,No,Mon-Fri 8:00-4:00,Free claims assistance
Delaware,DE,AMVETS Delaware Department,State HQ,100 West Commons Boulevard,New Castle,19720,(302) 326-2972,amvetsde@gmail.com,https://amvetsde.org,"Benefits, Employment, Transition",English,No,Mon-Fri 9:00-5:00,Veteran support services
Delaware,DE,VFW Post 475 Wilmington,Local Post,300 Veterans Drive,Wilmington,19802,(302) 762-9475,vfwpost475@gmail.com,https://vfwpost475.org,"Local support, VA referrals",English,No,Mon-Sat 11:00-9:00,Northern Delaware
Delaware,DE,American Legion Post 1 Dover,Local Post,1110 South State Street,Dover,19901,(302) 734-5009,alpost1dover@gmail.com,https://doverpost1.org,"Community service, Benefits",English,No,Mon-Fri 10:00-6:00,State capital location
Delaware,DE,DAV Chapter 1 Dover,Regional Office,1601 Kirkwood Highway,Wilmington,19805,(302) 633-5127,davdover@gmail.com,https://davdover.org,"VA claims, Medical transport",English,Yes,Tue-Thu 9:00-3:00,Kent County
Delaware,DE,VFW Post 5471 Newark,Local Post,100 Veterans Drive,Newark,19711,(302) 368-5471,vfwpost5471@yahoo.com,https://vfwpost5471.org,"Community service, Benefits",English,No,Wed-Sun 12:00-8:00,University area
Delaware,DE,VVA Delaware Chapter 1,Local Post,PO Box 896,Middletown,19709,(302) 378-9387,vvadelaware@gmail.com,https://vvade.org,"Benefits, Agent Orange, PTSD",English,Yes,By appointment,Vietnam veterans services
Delaware,DE,Delaware Commission of Veterans Affairs,State Agency,Robbins Building 802 Silver Lake Boulevard Suite 100,Dover,19904,(302) 739-2792,vets@delaware.gov,https://veteransaffairs.delaware.gov,"State benefits, Claims, Education",English,Yes,Mon-Fri 8:00-4:30,State veterans office
Florida,FL,VFW Department of Florida,State HQ,543 NE Sanchez Avenue,Ocala,34470,(352) 622-5126,office@vfwfl.org,https://vfwfl.org,"Claims assistance, Benefits counseling, Employment","English, Spanish",No,Mon-Fri 8:00-5:00,State headquarters
Florida,FL,American Legion Department of Florida,State HQ,1912A Lee Road,Orlando,32810,(407) 295-2631,mail@floridalegion.org,https://www.floridalegion.org,"VA claims, Employment, Advocacy","English, Spanish, Creole",Yes,By appointment,Statewide coordination
Florida,FL,DAV Department of Florida,State HQ,PO Box 620,Orange Park,32067,(904) 269-0886,davflorida@gmail.com,https://davflorida.org,"VA claims, Benefits assistance","English, Spanish",No,Mon-Fri 8:00-4:30,Free claims assistance
Florida,FL,AMVETS Department of Florida,State HQ,PO Box 1838,Lakeland,33802,(863) 688-1989,amvetsfl@gmail.com,https://amvetsfl.org,"Benefits, Employment, Transition","English, Spanish",No,Mon-Fri 9:00-5:00,Full veteran services
Florida,FL,VFW Post 3289 Tampa,Local Post,7612 Ehrlich Road,Tampa,33625,(813) 968-3289,vfwpost3289@gmail.com,https://vfwpost3289.org,"Local support, VA claims","English, Spanish",No,Mon-Fri 10:00-9:00,Tampa Bay area
Florida,FL,American Legion Post 53 Miami,Local Post,5400 NW 2nd Avenue,Miami,33127,(305) 757-8553,alpost53miami@gmail.com,https://miamipost53.org,"Community service, Benefits","English, Spanish, Creole",No,Mon-Fri 9:00-6:00,South Florida
Florida,FL,DAV Jacksonville Chapter,Regional Office,1833 Boulevard,Jacksonville,32206,(904) 353-4626,davjacksonville@gmail.com,https://davjacksonville.org,"VA claims, Medical transport","English, Spanish",Yes,Mon-Thu 8:00-4:00,Northeast Florida
Florida,FL,VFW Post 10066 Orlando,Local Post,915 East Michigan Street,Orlando,32806,(407) 898-1776,vfwpost10066@gmail.com,https://vfwpost10066.org,"Community service, Benefits","English, Spanish",No,Mon-Sat 11:00-10:00,Central Florida
Florida,FL,VVA Florida State Council,State HQ,PO Box 626,Orange Park,32067,(904) 269-5459,vvaflorida@gmail.com,https://www.vvafsc.org,"Benefits, Agent Orange, PTSD","English, Spanish",Yes,By appointment,Vietnam veterans services
Florida,FL,Florida Department of Veterans Affairs,State Agency,9500 Bay Pines Boulevard,Saint Petersburg,33708,(727) 319-7440,contact@fdva.state.fl.us,https://floridavets.org,"State benefits, Claims, Education, Healthcare","English, Spanish, Creole",Yes,Mon-Fri 8:00-5:00,State veterans department
Georgia,GA,VFW Department of Georgia,State HQ,570 Singleton Road,Stockbridge,30281,(770) 389-8387,office@vfwga.org,https://vfwga.org,"Claims assistance, Benefits counseling, Employment","English, Spanish",No,Mon-Fri 8:00-5:00,State headquarters
Georgia,GA,American Legion Department of Georgia,State HQ,3035 Mt. Zion Road,Stockbridge,30281,(678) 289-8883,info@galegion.org,https://www.galegion.org,"VA claims, Employment, Community","English, Spanish",Yes,By appointment,State service office
Georgia,GA,DAV Department of Georgia,State HQ,4462 Houston Avenue,Macon,31206,(478) 742-5020,georgiadav@gmail.com,https://georgiadav.org,"VA claims, Benefits assistance","English, Spanish",No,Mon-Fri 8:00-4:30,Free claims assistance
Georgia,GA,AMVETS Department of Georgia,State HQ,PO Box 3382,Alpharetta,30023,(770) 475-5115,amvetsga@gmail.com,https://amvetsga.org,"Benefits, Employment, Transition",English,No,Mon-Fri 9:00-5:00,Veteran support services
Georgia,GA,VFW Post 2930 Atlanta,Local Post,1650 Liberty Parkway NW,Atlanta,30318,(404) 351-2930,vfwpost2930@gmail.com,https://vfwpost2930.org,"Local support, VA referrals","English, Spanish",No,Mon-Fri 10:00-9:00,Metro Atlanta
Georgia,GA,American Legion Post 1 Savannah,Local Post,1108 Bull Street,Savannah,31401,(912) 232-9277,alpost1savannah@gmail.com,https://savannahpost1.org,"Community service, Benefits",English,No,Mon-Fri 10:00-6:00,Coastal Georgia
Georgia,GA,DAV Augusta Chapter,Regional Office,1 Freedom Way,Augusta,30904,(706) 733-0188,davaugusta@gmail.com,https://davaugusta.org,"VA claims, Medical transport","English, Spanish",Yes,Tue-Thu 9:00-3:00,East central Georgia
Georgia,GA,VFW Post 5819 Columbus,Local Post,1819 10th Avenue,Columbus,31901,(706) 322-5819,vfwpost5819@yahoo.com,https://vfwpost5819.org,"Community service, Benefits",English,No,Wed-Sun 12:00-8:00,West Georgia
Georgia,GA,VVA Georgia State Council,State HQ,PO Box 870614,Stone Mountain,30087,(404) 296-4387,vvageorgia@gmail.com,https://vvaga.org,"Benefits, Agent Orange, PTSD","English, Spanish",Yes,By appointment,Vietnam veterans services
Georgia,GA,Georgia Department of Veterans Service,State Agency,Floyd Veterans Memorial Building Suite E-970 2 Martin Luther King Jr. Drive SE,Atlanta,30334,(404) 656-2300,info@vs.state.ga.us,https://veterans.georgia.gov,"State benefits, Claims, Education","English, Spanish",Yes,Mon-Fri 8:00-5:00,State veterans department
Hawaii,HI,VFW Department of Hawaii,State HQ,1298 Kukila Street,Honolulu,96818,(808) 423-1334,office@vfwhawaii.org,https://vfwhawaii.org,"Claims assistance, Benefits counseling, Employment","English, Hawaiian, Tagalog, Japanese",No,Mon-Fri 8:00-4:30,State headquarters
Hawaii,HI,American Legion Department of Hawaii,State HQ,612 McCully Street,Honolulu,96826,(808) 946-6383,depthawaii@hawaiilegion.org,https://www.hawaiilegion.org,"VA claims, Employment, Community","English, Hawaiian, Tagalog",Yes,By appointment,State service office
Hawaii,HI,DAV Hawaii Department,State HQ,459 Patterson Road,Honolulu,96819,(808) 566-1724,davhawaii@gmail.com,https://davhawaii.org,"VA claims, Benefits assistance","English, Hawaiian, Tagalog, Japanese",No,Mon-Fri 8:00-4:00,Free claims assistance
Hawaii,HI,AMVETS Hawaii Department,State HQ,PO Box 29576,Honolulu,96820,(808) 423-9988,amvetshi@gmail.com,https://amvetshi.org,"Benefits, Employment, Transition","English, Tagalog",No,Mon-Fri 9:00-5:00,Veteran support services
Hawaii,HI,VFW Post 2875 Pearl City,Local Post,944 Lehua Avenue,Pearl City,96782,(808) 456-2875,vfwpost2875@gmail.com,https://vfwpost2875.org,"Local support, VA referrals","English, Tagalog",No,Mon-Sat 11:00-9:00,Oahu central
Hawaii,HI,American Legion Post 20 Hilo,Local Post,207 Waianuenue Avenue,Hilo,96720,(808) 935-9101,alpost20hilo@gmail.com,https://hilopost20.org,"Community service, Benefits","English, Hawaiian",No,Mon-Fri 10:00-6:00,Big Island
Hawaii,HI,DAV Chapter 5 Kailua-Kona,Regional Office,73-4976 Kamanu Street,Kailua-Kona,96740,(808) 329-1866,davkona@gmail.com,https://davkona.org,"VA claims, Medical transport","English, Hawaiian",Yes,Tue-Thu 9:00-3:00,West Hawaii
Hawaii,HI,VFW Post 10276 Maui,Local Post,777 Lower Main Street,Wailuku,96793,(808) 244-0276,vfwpost10276@gmail.com,https://vfwpost10276.org,"Community service, Benefits","English, Tagalog",No,Wed-Sun 12:00-8:00,Maui County
Hawaii,HI,VVA Hawaii Chapter 1,Local Post,PO Box 29576,Honolulu,96820,(808) 988-4387,vvahawaii@gmail.com,https://vvahawaii.org,"Benefits, Agent Orange, PTSD","English, Tagalog",Yes,By appointment,Vietnam veterans services
Hawaii,HI,Hawaii Office of Veterans Services,State Agency,459 Patterson Road E-Wing Room 1-A103,Honolulu,96819,(808) 433-0420,info@ovs.hawaii.gov,https://dod.hawaii.gov/ovs,"State benefits, Claims, Education","English, Hawaiian, Tagalog",Yes,Mon-Fri 7:45-4:30,State veterans office
Idaho,ID,VFW Department of Idaho,State HQ,6935 West Emerald Street,Boise,83704,(208) 375-4367,office@vfwidaho.org,https://vfwidaho.org,"Claims assistance, Benefits counseling, Employment",English,No,Mon-Fri 9:00-4:00,State headquarters
Idaho,ID,American Legion Department of Idaho,State HQ,901 Warren Street,Boise,83706,(208) 342-7061,adjutant@idlegion.org,https://www.idlegion.org,"VA claims, Employment, Community",English,Yes,By appointment,State service office
Idaho,ID,DAV Idaho Department,State HQ,805 West Franklin Street,Boise,83702,(208) 342-2699,davidaho@gmail.com,https://davidaho.org,"VA claims, Benefits assistance","English, Spanish",No,Mon-Fri 8:00-4:00,Free claims assistance
Idaho,ID,AMVETS Idaho Department,State HQ,PO Box 1645,Meridian,83680,(208) 888-3214,amvetsid@gmail.com,https://amvetsid.org,"Benefits, Employment, Transition",English,No,Mon-Fri 9:00-5:00,Veteran support services
Idaho,ID,VFW Post 56 Boise,Local Post,6935 West Emerald Street,Boise,83704,(208) 375-1956,vfwpost56@gmail.com,https://vfwpost56.org,"Local support, VA referrals",English,No,Mon-Sat 11:00-9:00,Treasure Valley
Idaho,ID,American Legion Post 1 Pocatello,Local Post,444 Hospital Way,Pocatello,83201,(208) 232-5561,alpost1pocatello@gmail.com,https://pocatellopost1.org,"Community service, Benefits",English,No,Mon-Fri 10:00-6:00,Southeast Idaho
Idaho,ID,DAV Coeur d'Alene Chapter,Regional Office,777 West Ironwood Drive,Coeur d'Alene,83814,(208) 667-2645,davcda@gmail.com,https://davcda.org,"VA claims, Medical transport",English,Yes,Tue-Thu 9:00-3:00,North Idaho
Idaho,ID,VFW Post 3917 Idaho Falls,Local Post,345 West 7th Street,Idaho Falls,83402,(208) 522-3917,vfwpost3917if@yahoo.com,https://vfwpost3917if.org,"Community service, Benefits",English,No,Wed-Sun 12:00-8:00,East Idaho
Idaho,ID,VVA Idaho Chapter 1,Local Post,PO Box 4621,Boise,83711,(208) 345-8387,vvaidaho@gmail.com,https://vvaid.org,"Benefits, Agent Orange, PTSD",English,Yes,By appointment,Vietnam veterans services
Idaho,ID,Idaho Division of Veterans Services,State Agency,351 Collins Road,Boise,83702,(208) 780-1300,veterans@veterans.idaho.gov,https://veterans.idaho.gov,"State benefits, Claims, Cemetery",English,Yes,Mon-Fri 8:00-5:00,State veterans office
Illinois,IL,VFW Department of Illinois,State HQ,2720 East Lincoln Street,Bloomington,61704,(309) 663-0061,office@vfwil.org,https://vfwil.org,"Claims assistance, Benefits counseling, Employment","English, Spanish, Polish",No,Mon-Fri 8:00-4:30,State headquarters
Illinois,IL,American Legion Department of Illinois,State HQ,2720 East Lincoln Street,Bloomington,61704,(309) 663-0361,hq@illegion.org,https://www.illegion.org,"VA claims, Employment, Community","English, Spanish",Yes,By appointment,State service office
Illinois,IL,DAV Department of Illinois,State HQ,3740 Wabash Avenue,Springfield,62711,(217) 241-4304,davillinois@gmail.com,https://davwebsites.dav.org/IL,"VA claims, Benefits assistance","English, Spanish, Polish",No,Mon-Fri 8:00-4:00,Free claims assistance
Illinois,IL,AMVETS Department of Illinois,State HQ,2200 South 6th Street,Springfield,62703,(217) 528-4713,amvetsil@gmail.com,https://amvetsil.org,"Benefits, Employment, Transition","English, Spanish",No,Mon-Fri 9:00-5:00,Veteran support services
Illinois,IL,VFW Post 2127 Chicago,Local Post,5253 North Elston Avenue,Chicago,60630,(773) 775-2127,vfwpost2127@gmail.com,https://vfwpost2127.org,"Local support, VA referrals","English, Spanish, Polish",No,Mon-Fri 10:00-9:00,Northwest Chicago
Illinois,IL,American Legion Post 1 Springfield,Local Post,1001 North Grand Avenue East,Springfield,62702,(217) 522-3995,alpost1springfield@gmail.com,https://springfieldpost1.org,"Community service, Benefits",English,No,Mon-Fri 10:00-6:00,State capital location
Illinois,IL,DAV Peoria Chapter,Regional Office,411 Hamilton Boulevard,Peoria,61602,(309) 671-7138,davpeoria@gmail.com,https://davpeoria.org,"VA claims, Medical transport","English, Spanish",Yes,Tue-Thu 9:00-3:00,Central Illinois
Illinois,IL,VFW Post 2791 Rockford,Local Post,205 15th Avenue,Rockford,61104,(815) 962-2791,vfwpost2791@yahoo.com,https://vfwpost2791.org,"Community service, Benefits",English,No,Wed-Sun 12:00-8:00,North Illinois
Illinois,IL,VVA Illinois State Council,State HQ,PO Box 9486,Springfield,62791,(217) 787-9387,vvaillinois@gmail.com,https://vvail.org,"Benefits, Agent Orange, PTSD","English, Spanish",Yes,By appointment,Vietnam veterans services
Illinois,IL,Illinois Department of Veterans Affairs,State Agency,833 South Spring Street,Springfield,62704,(217) 782-6641,veterans@illinois.gov,https://www.illinois.gov/veterans,"State benefits, Claims, Healthcare","English, Spanish, Polish",Yes,Mon-Fri 8:30-5:00,State veterans department
Indiana,IN,VFW Department of Indiana,State HQ,9555 East 59th Street,Indianapolis,46216,(317) 377-1795,office@vfwin.org,https://vfwin.org,"Claims assistance, Benefits counseling, Employment","English, Spanish",No,Mon-Fri 8:00-4:30,State headquarters
Indiana,IN,American Legion Department of Indiana,State HQ,777 North Meridian Street,Indianapolis,46204,(317) 630-1300,info@indlegion.org,https://www.indlegion.org,"VA claims, Employment, Community",English,Yes,By appointment,State service office
Indiana,IN,DAV Indiana Department,State HQ,5975 Lakeside Boulevard,Indianapolis,46278,(317) 299-9726,davindiana@gmail.com,https://davindiana.org,"VA claims, Benefits assistance","English, Spanish",No,Mon-Fri 8:00-4:00,Free claims assistance
Indiana,IN,AMVETS Indiana Department,State HQ,2840 Lafayette Road Suite A,Indianapolis,46222,(812) 240-5640,amvetsin@gmail.com,https://amvetsin.org,"Benefits, Employment, Transition",English,No,Mon-Fri 9:00-5:00,Veteran support services
Indiana,IN,VFW Post 1130 Indianapolis,Local Post,8925 East 21st Street,Indianapolis,46229,(317) 898-1130,vfwpost1130@gmail.com,https://vfwpost1130.org,"Local support, VA referrals",English,No,Mon-Sat 11:00-9:00,East Indianapolis
Indiana,IN,American Legion Post 64 Fort Wayne,Local Post,2408 South Calhoun Street,Fort Wayne,46807,(260) 456-2564,alpost64fw@gmail.com,https://fortpost64.org,"Community service, Benefits",English,No,Mon-Fri 10:00-6:00,Northeast Indiana
Indiana,IN,DAV Evansville Chapter,Regional Office,715 Locust Street,Evansville,47708,(812) 425-5729,davevansville@gmail.com,https://davevansville.org,"VA claims, Medical transport",English,Yes,Tue-Thu 9:00-3:00,Southwest Indiana
Indiana,IN,VFW Post 1114 South Bend,Local Post,520 South Michigan Street,South Bend,46601,(574) 234-1114,vfwpost1114sb@yahoo.com,https://vfwpost1114sb.org,"Community service, Benefits",English,No,Wed-Sun 12:00-8:00,North Indiana
Indiana,IN,VVA Indiana State Council,State HQ,PO Box 20592,Indianapolis,46220,(317) 257-9387,vvaindiana@gmail.com,https://vvain.org,"Benefits, Agent Orange, PTSD",English,Yes,By appointment,Vietnam veterans services
Indiana,IN,Indiana Department of Veterans Affairs,State Agency,302 West Washington Street Room E-120,Indianapolis,46204,(317) 232-3910,info@dva.in.gov,https://www.in.gov/dva,"State benefits, Claims, Education",English,Yes,Mon-Fri 8:00-4:30,State veterans office
Iowa,IA,VFW Department of Iowa,State HQ,106 South Ankeny Boulevard,Ankeny,50023,(515) 964-1975,office@iavfw.org,https://iavfw.org,"Claims assistance, Benefits counseling, Employment",English,No,Mon-Fri 8:00-4:30,State headquarters
Iowa,IA,American Legion Department of Iowa,State HQ,720 Lyon Street,Des Moines,50309,(515) 282-5068,info@ialegion.org,https://www.ialegion.org,"VA claims, Employment, Community",English,Yes,By appointment,State service office
Iowa,IA,DAV Iowa Department,State HQ,3703 1st Avenue SE,Cedar Rapids,52402,(319) 363-4458,daviowa@gmail.com,https://daviowa.org,"VA claims, Benefits assistance","English, Spanish",No,Mon-Fri 8:00-4:00,Free claims assistance
Iowa,IA,AMVETS Iowa Department,State HQ,PO Box 2147,Des Moines,50310,(515) 279-9384,amvetsia@gmail.com,https://amvetsia.org,"Benefits, Employment, Transition",English,No,Mon-Fri 9:00-5:00,Veteran support services
Iowa,IA,VFW Post 788 Des Moines,Local Post,534 42nd Street,Des Moines,50312,(515) 255-0788,vfwpost788@gmail.com,https://vfwpost788.org,"Local support, VA referrals",English,No,Mon-Sat 11:00-9:00,Central Iowa
Iowa,IA,American Legion Post 32 Iowa City,Local Post,417 South Gilbert Street,Iowa City,52240,(319) 337-3232,alpost32ic@gmail.com,https://iowacitypost32.org,"Community service, Benefits",English,No,Mon-Fri 10:00-6:00,Southeast Iowa
Iowa,IA,DAV Sioux City Chapter,Regional Office,1551 Indian Hills Drive,Sioux City,51104,(712) 258-4661,davsiouxcity@gmail.com,https://davsiouxcity.org,"VA claims, Medical transport",English,Yes,Tue-Thu 9:00-3:00,Northwest Iowa
Iowa,IA,VFW Post 1856 Cedar Rapids,Local Post,3707 Queen Court SW,Cedar Rapids,52404,(319) 396-1856,vfwpost1856@yahoo.com,https://vfwpost1856.org,"Community service, Benefits",English,No,Wed-Sun 12:00-8:00,East Iowa
Iowa,IA,VVA Iowa State Council,State HQ,PO Box 252,Waterloo,50704,(319) 234-8387,vvaiowa@gmail.com,https://vvaia.org,"Benefits, Agent Orange, PTSD",English,Yes,By appointment,Vietnam veterans services
Iowa,IA,Iowa Department of Veterans Affairs,State Agency,7105 NW 70th Avenue,Camp Dodge - Johnston,50131,(515) 242-5331,info@ivh.state.ia.us,https://va.iowa.gov,"State benefits, Claims, Healthcare",English,Yes,Mon-Fri 8:00-4:30,State veterans office
Kansas,KS,VFW Department of Kansas,State HQ,829 SW Fairlawn Road,Topeka,66606,(785) 233-9240,office@ksvfw.org,https://ksvfw.org,"Claims assistance, Benefits counseling, Employment","English, Spanish",No,Mon-Fri 8:00-4:30,State headquarters
Kansas,KS,American Legion Department of Kansas,State HQ,1314 SW Topeka Boulevard,Topeka,66612,(785) 232-9315,info@kslegion.org,https://www.kslegion.org,"VA claims, Employment, Community",English,Yes,By appointment,State service office
Kansas,KS,DAV Kansas Department,State HQ,PO Box 3805,Topeka,66604,(785) 232-1919,davkansas@gmail.com,https://davkansas.org,"VA claims, Benefits assistance","English, Spanish",No,Mon-Fri 8:00-4:00,Free claims assistance
Kansas,KS,AMVETS Kansas Department,State HQ,PO Box 67126,Topeka,66667,(785) 272-2999,amvetsks@gmail.com,https://amvetsks.org,"Benefits, Employment, Transition",English,No,Mon-Fri 9:00-5:00,Veteran support services
Kansas,KS,VFW Post 1650 Wichita,Local Post,114 South Market Street,Wichita,67202,(316) 262-1650,vfwpost1650@gmail.com,https://vfwpost1650.org,"Local support, VA referrals","English, Spanish",No,Mon-Sat 11:00-9:00,South central Kansas
Kansas,KS,American Legion Post 1 Topeka,Local Post,3800 SW Topeka Boulevard,Topeka,66609,(785) 267-1923,alpost1topeka@gmail.com,https://topekapost1.org,"Community service, Benefits",English,No,Mon-Fri 10:00-6:00,State capital location
Kansas,KS,DAV Kansas City Chapter,Regional Office,4101 South 4th Street,Leavenworth,66048,(913) 682-2292,davkansascity@gmail.com,https://davkc.org,"VA claims, Medical transport",English,Yes,Tue-Thu 9:00-3:00,Northeast Kansas
Kansas,KS,VFW Post 7397 Manhattan,Local Post,2025 Leavenworth Street,Manhattan,66502,(785) 539-7397,vfwpost7397@yahoo.com,https://vfwpost7397.org,"Community service, Benefits",English,No,Wed-Sun 12:00-8:00,Riley County
Kansas,KS,VVA Kansas State Council,State HQ,PO Box 3805,Topeka,66604,(785) 271-9387,vvakansas@gmail.com,https://vvaks.org,"Benefits, Agent Orange, PTSD","English, Spanish",Yes,By appointment,Vietnam veterans services
Kansas,KS,Kansas Commission on Veterans Affairs,State Agency,Jayhawk Tower 700 SW Jackson Street Suite 701,Topeka,66603,(785) 296-3976,kcva.info@ks.gov,https://kcva.ks.gov,"State benefits, Claims, Education",English,Yes,Mon-Fri 8:00-5:00,State veterans office
Kentucky,KY,VFW Department of Kentucky,State HQ,1351 Newtown Pike,Lexington,40511,(859) 231-5568,office@vfwky.org,https://vfwky.org,"Claims assistance, Benefits counseling, Employment services",English,No,Mon-Fri 8:00-4:30,State headquarters
Kentucky,KY,American Legion Department of Kentucky,State HQ,1314 Parkway Drive,Louisville,40217,(502) 587-1414,info@kylegion.org,https://www.kylegion.org,"VA claims, Employment, Community",English,Yes,By appointment,State service office
Kentucky,KY,DAV Kentucky Department,State HQ,832 East High Street,Lexington,40502,(859) 254-3806,davkentucky@gmail.com,https://davky.org,"VA claims, Benefits assistance","English, Spanish",No,Mon-Fri 8:00-4:00,Free claims assistance
Kentucky,KY,AMVETS Kentucky Department,State HQ,PO Box 3382,Louisville,40233,(502) 719-2998,amvetsky@gmail.com,https://amvetsky.org,"Benefits, Employment, Transition",English,No,Mon-Fri 9:00-5:00,Veteran support services
Kentucky,KY,VFW Post 696 Louisville,Local Post,2801 Klondike Lane,Louisville,40218,(502) 454-2625,vfwpost696@gmail.com,https://vfwpost696.org,"Local support, VA referrals",English,No,Mon-Sat 11:00-9:00,Active Louisville post
Kentucky,KY,American Legion Post 8 Lexington,Local Post,1314 Leestown Road,Lexington,40508,(859) 252-0388,alpost8lex@gmail.com,https://lexpost8.org,"Community service, Benefits",English,No,Mon-Fri 10:00-6:00,Bluegrass region
Kentucky,KY,DAV Bowling Green Chapter,Regional Office,645 Jim Cummins Highway,Bowling Green,42101,(270) 843-9291,davbg@gmail.com,https://davbg.org,"VA claims, Medical transport",English,Yes,Tue-Thu 9:00-3:00,South central Kentucky
Kentucky,KY,VFW Post 4075 Covington,Local Post,730 Madison Avenue,Covington,41011,(859) 291-4075,vfwpost4075@yahoo.com,https://vfwpost4075.org,"Community service, Benefits",English,No,Wed-Sun 12:00-8:00,Northern Kentucky
Kentucky,KY,VVA Kentucky State Council,State HQ,PO Box 412,Frankfort,40602,(502) 229-7387,vvakentucky@gmail.com,https://vvaky.org,"Benefits, Agent Orange, PTSD",English,Yes,By appointment,Vietnam veterans services
Kentucky,KY,Kentucky Department of Veterans Affairs,State Agency,321 West Main Street Suite 390,Louisville,40202,(502) 595-4447,veterans@ky.gov,https://veterans.ky.gov,"State benefits, Claims, Healthcare",English,Yes,Mon-Fri 8:00-4:30,State veterans office
Louisiana,LA,VFW Department of Louisiana,State HQ,2130 North Arnoult Road,Metairie,70001,(504) 835-4357,office@vfwla.org,https://vfwla.org,"Claims assistance, Benefits counseling, Employment services","English, French",No,Mon-Fri 8:00-5:00,State headquarters
Louisiana,LA,American Legion Department of Louisiana,State HQ,3701 Highway 190 West,Port Allen,70767,(225) 383-0022,info@lalgion.org,https://www.lalgion.org,"VA claims, Employment, Community","English, French",Yes,By appointment,State service office
Louisiana,LA,DAV Louisiana Department,State HQ,1855 Wooddale Boulevard Suite 200,Baton Rouge,70806,(225) 928-2334,davlouisiana@gmail.com,https://davla.org,"VA claims, Benefits assistance","English, French, Spanish",No,Mon-Fri 8:00-4:00,Free claims assistance
Louisiana,LA,AMVETS Louisiana Department,State HQ,PO Box 80966,Baton Rouge,70898,(225) 389-3117,amvetsla@gmail.com,https://amvetsla.org,"Benefits, Employment, Transition","English, French",No,Mon-Fri 9:00-5:00,Veteran support services
Louisiana,LA,VFW Post 2330 New Orleans,Local Post,430 North Claiborne Avenue,New Orleans,70112,(504) 522-2330,vfwpost2330@gmail.com,https://vfwpost2330.org,"Local support, VA referrals","English, French",No,Mon-Fri 10:00-9:00,Greater New Orleans
Louisiana,LA,American Legion Post 1 Baton Rouge,Local Post,4731 North Boulevard,Baton Rouge,70806,(225) 928-0024,alpost1br@gmail.com,https://brpost1.org,"Community service, Benefits","English, French",No,Mon-Fri 10:00-6:00,State capital location
Louisiana,LA,DAV Shreveport Chapter,Regional Office,2800 Greenwood Road,Shreveport,71109,(318) 636-9201,davshreveport@gmail.com,https://davshreveport.org,"VA claims, Medical transport",English,Yes,Tue-Thu 9:00-3:00,Northwest Louisiana
Louisiana,LA,VFW Post 9559 Lafayette,Local Post,419 Doucet Road,Lafayette,70503,(337) 984-9559,vfwpost9559@yahoo.com,https://vfwpost9559.org,"Community service, Benefits","English, French",No,Wed-Sun 12:00-8:00,Acadiana region
Louisiana,LA,VVA Louisiana State Council,State HQ,PO Box 3353,Baton Rouge,70821,(225) 273-8387,vvalouisiana@gmail.com,https://vvala.org,"Benefits, Agent Orange, PTSD","English, French",Yes,By appointment,Vietnam veterans services
Louisiana,LA,Louisiana Department of Veterans Affairs,State Agency,1885 Wooddale Boulevard Suite 1013,Baton Rouge,70806,(225) 922-0500,vetaffairs@la.gov,https://vetaffairs.la.gov,"State benefits, Claims, Healthcare","English, French",Yes,Mon-Fri 8:00-4:30,State veterans department
Maine,ME,VFW Department of Maine,State HQ,5 Verti Drive,Winslow,04901,(207) 873-3229,office@vfwmaine.org,https://vfwmaine.org,"Claims assistance, Benefits counseling, Employment services",English,No,Mon-Fri 8:00-4:30,State headquarters
Maine,ME,American Legion Department of Maine,State HQ,5 Verti Drive,Winslow,04901,(207) 873-3229,info@mainelegion.org,https://www.mainelegion.org,"VA claims, Employment, Community",English,Yes,By appointment,State service office
Maine,ME,DAV Maine Department,State HQ,340 Mount Hope Avenue Suite 300,Bangor,04401,(207) 942-5963,davmaine@gmail.com,https://davmaine.org,"VA claims, Benefits assistance",English,No,Mon-Fri 8:00-4:00,Free claims assistance
Maine,ME,AMVETS Maine Department,State HQ,PO Box 525,Augusta,04332,(207) 623-8772,amvetsme@gmail.com,https://amvetsme.org,"Benefits, Employment, Transition",English,No,Mon-Fri 9:00-5:00,Veteran support services
Maine,ME,VFW Post 2197 Portland,Local Post,17 Oceana Drive,Peaks Island,04108,(207) 766-4665,vfwpost2197@gmail.com,https://vfwpost2197.org,"Local support, VA referrals",English,No,Mon-Sat 11:00-9:00,Greater Portland area
Maine,ME,American Legion Post 1 Augusta,Local Post,143 Capitol Street,Augusta,04330,(207) 622-9731,alpost1augusta@gmail.com,https://augustapost1.org,"Community service, Benefits",English,No,Mon-Fri 10:00-6:00,State capital location
Maine,ME,DAV Bangor Chapter,Regional Office,35 Springer Drive,Bangor,04401,(207) 941-8387,davbangor@gmail.com,https://davbangor.org,"VA claims, Medical transport",English,Yes,Tue-Thu 9:00-3:00,Eastern Maine
Maine,ME,VFW Post 9935 Lewiston,Local Post,50 Pine Street,Lewiston,04240,(207) 783-9935,vfwpost9935@yahoo.com,https://vfwpost9935.org,"Community service, Benefits",English,No,Wed-Sun 12:00-8:00,Androscoggin County
Maine,ME,VVA Maine State Council,State HQ,PO Box 8318,Portland,04104,(207) 650-8387,vvamaine@gmail.com,https://vvame.org,"Benefits, Agent Orange, PTSD",English,Yes,By appointment,Vietnam veterans services
Maine,ME,Maine Bureau of Veterans Services,State Agency,117 State House Station,Augusta,04333,(207) 430-6035,mainebvs@maine.gov,https://www.maine.gov/veterans,"State benefits, Claims, Education",English,Yes,Mon-Fri 8:00-5:00,State veterans office
Maryland,MD,VFW Department of Maryland,State HQ,7108 Minstrel Way Suite 101,Columbia,21045,(410) 799-3198,office@mdvfw.org,https://vfwmd.org,"Claims assistance, Benefits counseling, Employment services","English, Spanish",No,Mon-Fri 8:00-5:00,State headquarters
Maryland,MD,American Legion Department of Maryland,State HQ,101 North Gay Street 5th Floor,Baltimore,21202,(410) 752-1405,info@mdlegion.org,https://www.mdlegion.org,"VA claims, Employment, Community","English, Spanish",Yes,By appointment,State service office
Maryland,MD,DAV Maryland Department,State HQ,1777 Reisterstown Road Suite 410,Baltimore,21208,(410) 764-5603,davmaryland@gmail.com,https://davmd.org,"VA claims, Benefits assistance","English, Spanish",No,Mon-Fri 8:00-4:00,Free claims assistance
Maryland,MD,AMVETS Maryland Department,State HQ,1724 Forest Drive Suite 18,Annapolis,21401,(410) 268-3838,amvetsmd@gmail.com,https://amvetsmd.org,"Benefits, Employment, Transition",English,No,Mon-Fri 9:00-5:00,Veteran support services
Maryland,MD,VFW Post 160 Baltimore,Local Post,400 West 23rd Street,Baltimore,21211,(410) 889-0160,vfwpost160@gmail.com,https://vfwpost160.org,"Local support, VA referrals","English, Spanish",No,Mon-Fri 10:00-9:00,Baltimore City
Maryland,MD,American Legion Post 91 Rockville,Local Post,9 Park Road,Rockville,20850,(301) 340-9091,alpost91@gmail.com,https://rockpost91.org,"Community service, Benefits",English,No,Mon-Fri 10:00-6:00,Montgomery County
Maryland,MD,DAV Frederick Chapter,Regional Office,1 Frederick County Veterans Way,Frederick,21701,(301) 600-2345,davfrederick@gmail.com,https://davfrederick.org,"VA claims, Medical transport","English, Spanish",Yes,Tue-Thu 9:00-3:00,Western Maryland
Maryland,MD,VFW Post 10159 Silver Spring,Local Post,1401 Lamberton Drive,Silver Spring,20902,(301) 649-0159,vfwpost10159@yahoo.com,https://vfwpost10159.org,"Community service, Benefits","English, Spanish",No,Wed-Sun 12:00-8:00,Metro DC area
Maryland,MD,VVA Maryland State Council,State HQ,PO Box 3124,Glen Burnie,21061,(410) 760-8387,vvamaryland@gmail.com,https://vvamd.org,"Benefits, Agent Orange, PTSD","English, Spanish",Yes,By appointment,Vietnam veterans services
Maryland,MD,Maryland Department of Veterans Affairs,State Agency,The Wineland Building 16 Francis Street,Annapolis,21401,(410) 260-3838,mdva.info@maryland.gov,https://veterans.maryland.gov,"State benefits, Claims, Healthcare, Cemetery","English, Spanish",Yes,Mon-Fri 8:00-5:00,State veterans department
Massachusetts,MA,VFW Department of Massachusetts,State HQ,24 Beacon Street,Boston,02133,(617) 303-5690,office@vfwma.org,https://vfwma.com,"Claims assistance, Benefits counseling, Employment services",English,No,Mon-Fri 8:00-4:30,State headquarters
Massachusetts,MA,American Legion Department of Massachusetts,State HQ,546 Pleasant Street,Watertown,02472,(617) 926-1100,info@masslegion.org,https://www.masslegion.org,"VA claims, Employment, Community",English,Yes,By appointment,State service office
Massachusetts,MA,DAV Massachusetts Department,State HQ,State House Room 546,Boston,02133,(617) 727-2974,davmassachusetts@gmail.com,https://davma.org,"VA claims, Benefits assistance","English, Spanish, Portuguese",No,Mon-Fri 8:00-4:00,Free claims assistance
Massachusetts,MA,AMVETS Massachusetts Department,State HQ,470 Donald Lynch Boulevard,Marlborough,01752,(508) 485-3020,amvetsma@gmail.com,https://www.amvetsma.org,"Benefits, Employment, Transition",English,No,Mon-Fri 9:00-5:00,Veteran support services
Massachusetts,MA,VFW Post 1274 Boston,Local Post,11 Allstate Road,Dorchester,02125,(617) 436-1274,vfwpost1274@gmail.com,https://vfwpost1274.org,"Local support, VA referrals","English, Spanish",No,Mon-Sat 11:00-9:00,Greater Boston
Massachusetts,MA,American Legion Post 3 Worcester,Local Post,205 Shrewsbury Street,Worcester,01604,(508) 753-5403,alpost3worcester@gmail.com,https://worcesterpost3.org,"Community service, Benefits",English,No,Mon-Fri 10:00-6:00,Central Massachusetts
Massachusetts,MA,DAV Springfield Chapter,Regional Office,99 Chapin Terrace,Springfield,01107,(413) 787-8387,davspringfield@gmail.com,https://davspringfield.org,"VA claims, Medical transport","English, Spanish, Portuguese",Yes,Tue-Thu 9:00-3:00,Western Massachusetts
Massachusetts,MA,VFW Post 2152 Cambridge,Local Post,688 Huron Avenue,Cambridge,02138,(617) 876-2152,vfwpost2152@yahoo.com,https://vfwpost2152.org,"Community service, Benefits",English,No,Wed-Sun 12:00-8:00,Metro Boston
Massachusetts,MA,VVA Massachusetts State Council,State HQ,PO Box 60340,Worcester,01606,(508) 755-8387,vvamassachusetts@gmail.com,https://vvama.org,"Benefits, Agent Orange, PTSD","English, Spanish",Yes,By appointment,Vietnam veterans services
Massachusetts,MA,Massachusetts Department of Veterans Services,State Agency,600 Washington Street 1100,Boston,02111,(617) 210-5480,dvsinfo@mass.gov,https://www.mass.gov/orgs/department-of-veterans-services,"State benefits, Claims, Healthcare, Cemetery",English,Yes,Mon-Fri 8:45-5:00,State veterans department
Michigan,MI,VFW Department of Michigan,State HQ,924 North Washington Avenue,Lansing,48906,(517) 485-9456,office@vfwmi.org,https://vfwmi.org,"Claims assistance, Benefits counseling, Employment services","English, Arabic, Spanish",No,Mon-Fri 8:00-5:00,State headquarters
Michigan,MI,American Legion Department of Michigan,State HQ,212 North Verlinden Avenue Suite A,Lansing,48915,(517) 371-4720,info@michiganlegion.org,https://www.michiganlegion.org,"VA claims, Employment, Community","English, Arabic",Yes,By appointment,State service office
Michigan,MI,DAV Michigan Department,State HQ,Patrick V. McNamara Federal Building 477 Michigan Avenue Room 1228,Detroit,48226,(313) 964-6510,davmichigan@gmail.com,https://davmi.org,"VA claims, Benefits assistance","English, Spanish, Arabic",No,Mon-Fri 8:00-4:00,Free claims assistance
Michigan,MI,AMVETS Michigan Department,State HQ,1582 South Washington Avenue,Lansing,48910,(517) 487-1755,amvetsmi@gmail.com,https://amvetsmichigan.org,"Benefits, Employment, Transition",English,No,Mon-Fri 9:00-5:00,Veteran support services
Michigan,MI,VFW Post 334 Detroit,Local Post,4140 Woodward Avenue,Detroit,48201,(313) 831-6334,vfwpost334@gmail.com,https://vfwpost334.org,"Local support, VA referrals","English, Arabic",No,Mon-Fri 10:00-9:00,Metro Detroit
Michigan,MI,American Legion Post 4 Grand Rapids,Local Post,468 Leonard Street NW,Grand Rapids,49504,(616) 459-3004,alpost4gr@gmail.com,https://grpost4.org,"Community service, Benefits",English,No,Mon-Fri 10:00-6:00,West Michigan
Michigan,MI,DAV Lansing Chapter,Regional Office,1156 South Washington Avenue,Lansing,48910,(517) 484-4884,davlansing@gmail.com,https://davlansing.org,"VA claims, Medical transport","English, Spanish",Yes,Tue-Thu 9:00-3:00,Capital area
Michigan,MI,VFW Post 5942 Flint,Local Post,1324 West Court Street,Flint,48503,(810) 235-5942,vfwpost5942@yahoo.com,https://vfwpost5942.org,"Community service, Benefits",English,No,Wed-Sun 12:00-8:00,Genesee County
Michigan,MI,VVA Michigan State Council,State HQ,PO Box 26062,Lansing,48909,(517) 321-8387,vvamichigan@gmail.com,https://vvami.org,"Benefits, Agent Orange, PTSD","English, Spanish",Yes,By appointment,Vietnam veterans services
Michigan,MI,Michigan Veterans Affairs Agency,State Agency,3554 Motor Avenue,Lansing,48910,(517) 284-5296,mvaa@michigan.gov,https://www.michigan.gov/mvaa,"State benefits, Claims, Healthcare, Homes","English, Arabic, Spanish",Yes,Mon-Fri 8:00-5:00,State veterans agency
Minnesota,MN,VFW Department of Minnesota,State HQ,20 West 12th Street Room 214A,St. Paul,55155,(651) 291-1757,office@vfwmn.org,https://www.vfwmn.org,"Claims assistance, Benefits counseling, Employment services","English, Somali, Hmong",No,Mon-Fri 8:00-4:30,State headquarters
Minnesota,MN,American Legion Department of Minnesota,State HQ,20 West 12th Street Room 300A,St. Paul,55155,(651) 291-1800,info@mnlegion.org,https://www.mnlegion.org,"VA claims, Employment, Community","English, Somali, Hmong",Yes,By appointment,State service office
Minnesota,MN,DAV Minnesota Department,State HQ,Bishop Henry Whipple Federal Building 1 Federal Drive Room G900,St. Paul,55111,(612) 970-5669,davminnesota@gmail.com,https://davmn.org,"VA claims, Benefits assistance","English, Somali, Hmong",No,Mon-Fri 8:00-4:00,Free claims assistance
Minnesota,MN,AMVETS Minnesota Department,State HQ,PO Box 13124,Roseville,55113,(651) 233-1999,amvetsmn@gmail.com,https://amvetsmn.org,"Benefits, Employment, Transition",English,No,Mon-Fri 9:00-5:00,Veteran support services
Minnesota,MN,VFW Post 2766 Minneapolis,Local Post,2929 Bryant Avenue South,Minneapolis,55408,(612) 824-2766,vfwpost2766@gmail.com,https://vfwpost2766.org,"Local support, VA referrals","English, Somali",No,Mon-Sat 11:00-9:00,South Minneapolis
Minnesota,MN,American Legion Post 49 St. Paul,Local Post,685 Stewart Avenue,St. Paul,55102,(651) 222-8439,alpost49sp@gmail.com,https://stpaulpost49.org,"Community service, Benefits","English, Hmong",No,Mon-Fri 10:00-6:00,State capital location
Minnesota,MN,DAV Duluth Chapter,Regional Office,412 West Superior Street,Duluth,55802,(218) 722-8387,davduluth@gmail.com,https://davduluth.org,"VA claims, Medical transport",English,Yes,Tue-Thu 9:00-3:00,Northeastern Minnesota
Minnesota,MN,VFW Post 5555 Bloomington,Local Post,9625 Lyndale Avenue South,Bloomington,55420,(952) 888-5555,vfwpost5555@yahoo.com,https://vfwpost5555.org,"Community service, Benefits",English,No,Wed-Sun 12:00-8:00,Metro area
Minnesota,MN,VVA Minnesota State Council,State HQ,PO Box 421,Lino Lakes,55014,(651) 481-8387,vvaminnesota@gmail.com,https://vvamn.org,"Benefits, Agent Orange, PTSD","English, Hmong",Yes,By appointment,Vietnam veterans services
Minnesota,MN,Minnesota Department of Veterans Affairs,State Agency,20 West 12th Street Suite 206C,St. Paul,55155,(651) 296-2562,info@mdva.state.mn.us,https://mn.gov/mdva,"State benefits, Claims, Healthcare, Cemetery","English, Somali, Hmong",Yes,Mon-Fri 8:00-4:30,State veterans department
Mississippi,MS,VFW Department of Mississippi,State HQ,209 Crescent Street,Jackson,39209,(601) 354-8387,office@vfwms.org,https://vfwms.org,"Claims assistance, Benefits counseling, Employment services",English,No,Mon-Fri 8:00-4:30,State headquarters
Mississippi,MS,American Legion Department of Mississippi,State HQ,1026 Northside Drive,Jackson,39211,(601) 366-1950,info@msal.org,https://www.msal.org,"VA claims, Employment, Community",English,Yes,By appointment,State service office
Mississippi,MS,DAV Mississippi Department,State HQ,1755 Lelia Drive Suite 101,Jackson,39216,(601) 364-7200,davmississippi@gmail.com,https://davms.org,"VA claims, Benefits assistance","English, Spanish",No,Mon-Fri 8:00-4:00,Free claims assistance
Mississippi,MS,AMVETS Mississippi Department,State HQ,PO Box 320542,Jackson,39232,(601) 948-2998,amvetsms@gmail.com,https://amvetsms.org,"Benefits, Employment, Transition",English,No,Mon-Fri 9:00-5:00,Veteran support services
Mississippi,MS,VFW Post 5660 Gulfport,Local Post,1601 31st Avenue,Gulfport,39501,(228) 863-5660,vfwpost5660@gmail.com,https://vfwpost5660.org,"Local support, VA referrals",English,No,Mon-Sat 11:00-9:00,Gulf Coast
Mississippi,MS,American Legion Post 1 Jackson,Local Post,219 Bierdeman Road,Pearl,39208,(601) 939-1001,alpost1jackson@gmail.com,https://jacksonpost1.org,"Community service, Benefits",English,No,Mon-Fri 10:00-6:00,State capital area
Mississippi,MS,DAV Biloxi Chapter,Regional Office,400 Veterans Avenue,Biloxi,39531,(228) 523-8387,davbiloxi@gmail.com,https://davbiloxi.org,"VA claims, Medical transport",English,Yes,Tue-Thu 9:00-3:00,Mississippi Gulf Coast
Mississippi,MS,VFW Post 2618 Hattiesburg,Local Post,309 East Pine Street,Hattiesburg,39401,(601) 582-2618,vfwpost2618@yahoo.com,https://vfwpost2618.org,"Community service, Benefits",English,No,Wed-Sun 12:00-8:00,South Mississippi
Mississippi,MS,VVA Mississippi State Council,State HQ,PO Box 13144,Jackson,39236,(601) 373-8387,vvamississippi@gmail.com,https://vvams.org,"Benefits, Agent Orange, PTSD",English,Yes,By appointment,Vietnam veterans services
Mississippi,MS,Mississippi Veterans Affairs Board,State Agency,3460 Highway 80 East,Pearl,39208,(601) 576-4850,mail@vab.ms.gov,https://www.vab.ms.gov,"State benefits, Claims, Healthcare",English,Yes,Mon-Fri 8:00-5:00,State veterans office
Missouri,MO,VFW Department of Missouri,State HQ,3401 Knipp Drive,Jefferson City,65109,(573) 636-8761,office@movfw.org,https://movfw.org,"Claims assistance, Benefits counseling, Employment services",English,No,Mon-Fri 8:00-4:30,State headquarters
Missouri,MO,American Legion Department of Missouri,State HQ,2405 Emerald Lane,Jefferson City,65109,(573) 893-2353,info@missourilegion.org,https://www.missourilegion.org,"VA claims, Employment, Community",English,Yes,By appointment,State service office
Missouri,MO,DAV Missouri Department,State HQ,7900 Bonhomme Avenue,Clayton,63105,(314) 725-2100,davmissouri@gmail.com,https://davmo.org,"VA claims, Benefits assistance","English, Spanish",No,Mon-Fri 8:00-4:00,Free claims assistance
Missouri,MO,AMVETS Missouri Department,State HQ,PO Box 104417,Jefferson City,65110,(573) 636-2888,amvetsmo@gmail.com,https://amvetsmo.org,"Benefits, Employment, Transition",English,No,Mon-Fri 9:00-5:00,Veteran support services
Missouri,MO,VFW Post 8540 St. Louis,Local Post,4222 Meramec Street,St. Louis,63116,(314) 832-8540,vfwpost8540@gmail.com,https://vfwpost8540.org,"Local support, VA referrals","English, Spanish",No,Mon-Fri 10:00-9:00,St. Louis area
Missouri,MO,American Legion Post 249 Kansas City,Local Post,406 West 34th Street,Kansas City,64111,(816) 561-0249,alpost249kc@gmail.com,https://kcpost249.org,"Community service, Benefits",English,No,Mon-Fri 10:00-6:00,Metro Kansas City
Missouri,MO,DAV Springfield Chapter,Regional Office,1702 East Pythian Street,Springfield,65802,(417) 881-8387,davspringfield@gmail.com,https://davspringfield.org,"VA claims, Medical transport",English,Yes,Tue-Thu 9:00-3:00,Southwest Missouri
Missouri,MO,VFW Post 5987 Columbia,Local Post,1509 North Providence Road,Columbia,65202,(573) 449-5987,vfwpost5987@yahoo.com,https://vfwpost5987.org,"Community service, Benefits",English,No,Wed-Sun 12:00-8:00,Mid-Missouri
Missouri,MO,VVA Missouri State Council,State HQ,PO Box 104533,Jefferson City,65110,(573) 635-8387,vvamissouri@gmail.com,https://vvamo.org,"Benefits, Agent Orange, PTSD",English,Yes,By appointment,Vietnam veterans services
Missouri,MO,Missouri Veterans Commission,State Agency,205 Jefferson Street 12th Floor,Jefferson City,65101,(573) 751-3779,mvc@mvc.dps.mo.gov,https://mvc.dps.mo.gov,"State benefits, Claims, Cemetery, Homes",English,Yes,Mon-Fri 8:00-5:00,State veterans commission
Montana,MT,VFW Department of Montana,State HQ,1118 9th Avenue,Helena,59601,(406) 442-9280,office@vfwmontana.org,https://vfwmontana.org,"Claims assistance, Benefits counseling, Employment services","English, Native American",No,Mon-Fri 8:00-4:30,State headquarters
Montana,MT,American Legion Department of Montana,State HQ,1123 North Last Chance Gulch,Helena,59601,(406) 442-7300,info@mtlegion.org,https://www.mtlegion.org,"VA claims, Employment, Community","English, Native American",Yes,By appointment,State service office
Montana,MT,DAV Montana Department,State HQ,1911 11th Avenue Suite 100,Helena,59601,(406) 443-3940,davmontana@gmail.com,https://davmontana.org,"VA claims, Benefits assistance","English, Native American",No,Mon-Fri 8:00-4:00,Free claims assistance
Montana,MT,AMVETS Montana Department,State HQ,PO Box 3388,Great Falls,59403,(406) 761-2998,amvetsmt@gmail.com,https://amvetsmt.org,"Benefits, Employment, Transition",English,No,Mon-Fri 9:00-5:00,Veteran support services
Montana,MT,VFW Post 665 Billings,Local Post,1120 North 27th Street,Billings,59101,(406) 252-7107,vfwpost665@gmail.com,https://vfwpost665.org,"Local support, VA referrals",English,No,Mon-Sat 11:00-9:00,Eastern Montana
Montana,MT,American Legion Post 2 Missoula,Local Post,3220 South Russell Street,Missoula,59801,(406) 728-9343,alpost2missoula@gmail.com,https://missoulapost2.org,"Community service, Benefits",English,No,Mon-Fri 10:00-6:00,Western Montana
Montana,MT,DAV Great Falls Chapter,Regional Office,1911 11th Avenue,Helena,59601,(406) 727-8387,davgreatfalls@gmail.com,https://davgreatfalls.org,"VA claims, Medical transport","English, Native American",Yes,Tue-Thu 9:00-3:00,North central Montana
Montana,MT,VFW Post 209 Butte,Local Post,118 West Granite Street,Butte,59701,(406) 723-2209,vfwpost209@yahoo.com,https://vfwpost209.org,"Community service, Benefits",English,No,Wed-Sun 12:00-8:00,Mining City
Montana,MT,VVA Montana State Council,State HQ,PO Box 20073,Billings,59104,(406) 256-8387,vvamontana@gmail.com,https://vvamont.org,"Benefits, Agent Orange, PTSD","English, Native American",Yes,By appointment,Vietnam veterans services
Montana,MT,Montana Department of Military Affairs Veterans Affairs Division,State Agency,1956 Mount Majo Street,Fort Harrison,59636,(406) 324-3740,montanaveterans@mt.gov,https://montanaveterans.mt.gov,"State benefits, Claims, Cemetery","English, Native American",Yes,Mon-Fri 8:00-5:00,State veterans division
Nebraska,NE,VFW Department of Nebraska,State HQ,742 Road D,Ralston,68127,(402) 896-5511,office@vfwne.org,https://vfwne.org,"Claims assistance, Benefits counseling, Employment services",English,No,Mon-Fri 8:00-4:30,State headquarters
Nebraska,NE,American Legion Department of Nebraska,State HQ,PO Box 5205,Lincoln,68505,(402) 464-6338,info@nebraskalegion.net,https://www.nebraskalegion.net,"VA claims, Employment, Community",English,Yes,By appointment,State service office
Nebraska,NE,DAV Nebraska Department,State HQ,2702 South 87th Avenue,Omaha,68124,(402) 391-1705,davnebraska@gmail.com,https://davne.org,"VA claims, Benefits assistance","English, Spanish",No,Mon-Fri 8:00-4:00,Free claims assistance
Nebraska,NE,AMVETS Nebraska Department,State HQ,PO Box 6051,Lincoln,68506,(402) 489-2998,amvetsne@gmail.com,https://amvetsne.org,"Benefits, Employment, Transition",English,No,Mon-Fri 9:00-5:00,Veteran support services
Nebraska,NE,VFW Post 2503 Omaha,Local Post,4024 South 84th Street,Omaha,68127,(402) 339-2503,vfwpost2503@gmail.com,https://vfwpost2503.org,"Local support, VA referrals","English, Spanish",No,Mon-Sat 11:00-9:00,Metro Omaha
Nebraska,NE,American Legion Post 3 Lincoln,Local Post,1040 O Street,Lincoln,68508,(402) 477-8653,alpost3lincoln@gmail.com,https://lincolnpost3.org,"Community service, Benefits",English,No,Mon-Fri 10:00-6:00,State capital location
Nebraska,NE,DAV Grand Island Chapter,Regional Office,611 West 4th Street,Grand Island,68801,(308) 382-8387,davgrandisland@gmail.com,https://davgrandisland.org,"VA claims, Medical transport",English,Yes,Tue-Thu 9:00-3:00,Central Nebraska
Nebraska,NE,VFW Post 3606 Bellevue,Local Post,1301 Fort Crook Road North,Bellevue,68005,(402) 291-3606,vfwpost3606@yahoo.com,https://vfwpost3606.org,"Community service, Benefits",English,No,Wed-Sun 12:00-8:00,Offutt AFB area
Nebraska,NE,VVA Nebraska State Council,State HQ,PO Box 2055,Grand Island,68802,(308) 381-8387,vvanebraska@gmail.com,https://vvane.org,"Benefits, Agent Orange, PTSD",English,Yes,By appointment,Vietnam veterans services
Nebraska,NE,Nebraska Department of Veterans Affairs,State Agency,State Office Building 301 Centennial Mall South 5th Floor,Lincoln,68509,(402) 471-2458,veterans.affairs@nebraska.gov,https://veterans.nebraska.gov,"State benefits, Claims, Homes",English,Yes,Mon-Fri 8:00-5:00,State veterans department
Nevada,NV,VFW Department of Nevada,State HQ,1251 American Pacific Drive,Henderson,89074,(702) 433-8387,office@vfwnv.org,https://vfwnv.org,"Claims assistance, Benefits counseling, Employment services","English, Spanish",No,Mon-Fri 8:00-5:00,State headquarters
Nevada,NV,American Legion Department of Nevada,State HQ,737 Veterans Memorial Drive,Las Vegas,89101,(702) 382-4411,info@nevadalegion.org,https://www.nevadalegion.org,"VA claims, Employment, Community","English, Spanish",Yes,By appointment,State service office
Nevada,NV,DAV Nevada Department,State HQ,5460 Reno Corporate Drive Suite 131,Reno,89511,(775) 324-6677,davnevada@gmail.com,https://davnv.org,"VA claims, Benefits assistance","English, Spanish",No,Mon-Fri 8:00-4:00,Free claims assistance
Nevada,NV,AMVETS Nevada Department,State HQ,PO Box 401,Las Vegas,89125,(702) 647-2998,amvetsnv@gmail.com,https://amvetsnv.org,"Benefits, Employment, Transition","English, Spanish",No,Mon-Fri 9:00-5:00,Veteran support services
Nevada,NV,VFW Post 3396 Las Vegas,Local Post,6280 Boulder Highway,Las Vegas,89122,(702) 431-3396,vfwpost3396@gmail.com,https://vfwpost3396.org,"Local support, VA referrals","English, Spanish",No,Mon-Fri 10:00-9:00,Las Vegas Valley
Nevada,NV,American Legion Post 8 Reno,Local Post,120 South Virginia Street,Reno,89501,(775) 786-0008,alpost8reno@gmail.com,https://renopost8.org,"Community service, Benefits",English,No,Mon-Fri 10:00-6:00,Northern Nevada
Nevada,NV,DAV Las Vegas Chapter,Regional Office,2950 South Jones Boulevard,Las Vegas,89146,(702) 262-8387,davlasvegas@gmail.com,https://davlasvegas.org,"VA claims, Medical transport","English, Spanish",Yes,Tue-Thu 9:00-3:00,Southern Nevada
Nevada,NV,VFW Post 9935 Henderson,Local Post,31 West Basic Road,Henderson,89015,(702) 565-9935,vfwpost9935@yahoo.com,https://vfwpost9935.org,"Community service, Benefits","English, Spanish",No,Wed-Sun 12:00-8:00,Henderson area
Nevada,NV,VVA Nevada State Council,State HQ,PO Box 815,Henderson,89009,(702) 456-8387,vvanevada@gmail.com,https://vvanv.org,"Benefits, Agent Orange, PTSD","English, Spanish",Yes,By appointment,Vietnam veterans services
Nevada,NV,Nevada Department of Veterans Services,State Agency,6830 South Eastern Avenue Suite 200,Las Vegas,89119,(702) 486-2440,ndvs@veterans.nv.gov,https://veterans.nv.gov,"State benefits, Claims, Cemetery","English, Spanish",Yes,Mon-Fri 8:00-5:00,State veterans department
NewHampshire,NH,VFW Department of New Hampshire,State HQ,16 Foundry Street,Concord,03301,(603) 228-8545,office@nhvfw.org,https://nhvfw.org,"Claims assistance, Benefits counseling, Employment services",English,No,Mon-Fri 8:00-4:30,State headquarters
NewHampshire,NH,American Legion Department of New Hampshire,State HQ,4 Liberty Street Extension,Concord,03301,(603) 224-7241,info@nhlegion.org,https://www.nhlegion.org,"VA claims, Employment, Community",English,Yes,By appointment,State service office
NewHampshire,NH,DAV New Hampshire Department,State HQ,275 Chestnut Street,Manchester,03103,(603) 668-8387,davnewhampshire@gmail.com,https://davnh.org,"VA claims, Benefits assistance",English,No,Mon-Fri 8:00-4:00,Free claims assistance
NewHampshire,NH,AMVETS New Hampshire Department,State HQ,PO Box 698,Portsmouth,03802,(603) 436-2998,amvetsnh@gmail.com,https://amvetsnh.org,"Benefits, Employment, Transition",English,No,Mon-Fri 9:00-5:00,Veteran support services
NewHampshire,NH,VFW Post 168 Manchester,Local Post,24 Center Street,Manchester,03103,(603) 669-9168,vfwpost168@gmail.com,https://vfwpost168.org,"Local support, VA referrals",English,No,Mon-Sat 11:00-9:00,Queen City
NewHampshire,NH,American Legion Post 37 Concord,Local Post,35 Dover Road,Chichester,03258,(603) 798-5378,alpost37concord@gmail.com,https://concordpost37.org,"Community service, Benefits",English,No,Mon-Fri 10:00-6:00,State capital area
NewHampshire,NH,DAV Nashua Chapter,Regional Office,20 South Main Street,Concord,03301,(603) 225-8387,davnashua@gmail.com,https://davnashua.org,"VA claims, Medical transport",English,Yes,Tue-Thu 9:00-3:00,Southern New Hampshire
NewHampshire,NH,VFW Post 1046 Portsmouth,Local Post,100 Penhallow Street,Portsmouth,03801,(603) 436-1046,vfwpost1046@yahoo.com,https://vfwpost1046.org,"Community service, Benefits",English,No,Wed-Sun 12:00-8:00,Seacoast region
NewHampshire,NH,VVA New Hampshire State Council,State HQ,PO Box 1035,Concord,03302,(603) 225-8387,vvanewhampshire@gmail.com,https://vvanh.org,"Benefits, Agent Orange, PTSD",English,Yes,By appointment,Vietnam veterans services
NewHampshire,NH,New Hampshire Office of Veterans Services,State Agency,275 Chestnut Street,Manchester,03103,(603) 624-9230,info@nhveterans.state.nh.us,https://www.nh.gov/veteransservices,"State benefits, Claims, Cemetery",English,Yes,Mon-Fri 8:00-4:30,State veterans office
NewJersey,NJ,VFW Department of New Jersey,State HQ,2051 Hockenbury Road,Trenton,08691,(609) 882-4449,office@vfwnj.org,https://vfwnj.org,"Claims assistance, Benefits counseling, Employment services","English, Spanish",No,Mon-Fri 8:00-5:00,State headquarters
NewJersey,NJ,American Legion Department of New Jersey,State HQ,135 West Hanover Street,Trenton,08618,(609) 695-5418,info@njamericanlegion.org,https://www.njamericanlegion.org,"VA claims, Employment, Community","English, Spanish",Yes,By appointment,State service office
NewJersey,NJ,DAV New Jersey Department,State HQ,5 Crossfield Avenue,West Trenton,08628,(609) 882-5941,davnewjersey@gmail.com,https://davnj.org,"VA claims, Benefits assistance","English, Spanish",No,Mon-Fri 8:00-4:00,Free claims assistance
NewJersey,NJ,AMVETS New Jersey Department,State HQ,186 Bergen Boulevard,West Paterson,07424,(973) 942-2998,amvetsnj@gmail.com,https://amvetsnj.org,"Benefits, Employment, Transition","English, Spanish",No,Mon-Fri 9:00-5:00,Veteran support services
NewJersey,NJ,VFW Post 822 Newark,Local Post,420 Sandford Avenue,Newark,07106,(973) 372-0822,vfwpost822@gmail.com,https://vfwpost822.org,"Local support, VA referrals","English, Spanish",No,Mon-Fri 10:00-9:00,Essex County
NewJersey,NJ,American Legion Post 61 Jersey City,Local Post,24 Erie Street,Jersey City,07302,(201) 435-2061,alpost61jc@gmail.com,https://jcpost61.org,"Community service, Benefits","English, Spanish",No,Mon-Fri 10:00-6:00,Hudson County
NewJersey,NJ,DAV Camden Chapter,Regional Office,300 Cooper Street Suite 900,Camden,08102,(856) 365-8387,davcamden@gmail.com,https://davcamden.org,"VA claims, Medical transport","English, Spanish",Yes,Tue-Thu 9:00-3:00,South Jersey
NewJersey,NJ,VFW Post 4591 Atlantic City,Local Post,3012 Pacific Avenue,Atlantic City,08401,(609) 344-4591,vfwpost4591@yahoo.com,https://vfwpost4591.org,"Community service, Benefits","English, Spanish",No,Wed-Sun 12:00-8:00,Shore region
NewJersey,NJ,VVA New Jersey State Council,State HQ,PO Box 3393,Cherry Hill,08034,(856) 428-8387,vvanewjersey@gmail.com,https://vvanj.org,"Benefits, Agent Orange, PTSD","English, Spanish",Yes,By appointment,Vietnam veterans services
NewJersey,NJ,New Jersey Department of Military and Veterans Affairs,State Agency,PO Box 340,Trenton,08625,(609) 530-6854,veterans@njdmava.state.nj.us,https://www.nj.gov/military/veterans,"State benefits, Claims, Cemetery, Homes","English, Spanish",Yes,Mon-Fri 8:30-4:30,State veterans affairs
NewMexico,NM,VFW Department of New Mexico,State HQ,1904 Saratoga Boulevard NE,Albuquerque,87110,(505) 256-4315,office@vfwnm.org,https://vfwnm.org,"Claims assistance, Benefits counseling, Employment services","English, Spanish, Native American",No,Mon-Fri 8:00-5:00,State headquarters
NewMexico,NM,American Legion Department of New Mexico,State HQ,1215 Mountain Road NE,Albuquerque,87102,(505) 247-9663,info@nmlegion.org,https://www.nmlegion.org,"VA claims, Employment, Community","English, Spanish, Native American",Yes,By appointment,State service office
NewMexico,NM,DAV New Mexico Department,State HQ,1600 Candelaria Road NE,Albuquerque,87107,(505) 346-8387,davnewmexico@gmail.com,https://davnm.org,"VA claims, Benefits assistance","English, Spanish, Native American",No,Mon-Fri 8:00-4:00,Free claims assistance
NewMexico,NM,AMVETS New Mexico Department,State HQ,PO Box 13283,Albuquerque,87192,(505) 299-2998,amvetsnm@gmail.com,https://amvetsnm.org,"Benefits, Employment, Transition","English, Spanish",No,Mon-Fri 9:00-5:00,Veteran support services
NewMexico,NM,VFW Post 401 Albuquerque,Local Post,2104 Central Avenue SE,Albuquerque,87106,(505) 243-0401,vfwpost401@gmail.com,https://vfwpost401.org,"Local support, VA referrals","English, Spanish",No,Mon-Fri 10:00-9:00,Metro Albuquerque
NewMexico,NM,American Legion Post 13 Santa Fe,Local Post,29 Calle Medico,Santa Fe,87507,(505) 982-6713,alpost13sf@gmail.com,https://santafepost13.org,"Community service, Benefits","English, Spanish",No,Mon-Fri 10:00-6:00,State capital location
NewMexico,NM,DAV Las Cruces Chapter,Regional Office,1700 North Main Street Suite 1400,Las Cruces,88001,(575) 526-8387,davlascruces@gmail.com,https://davlascruces.org,"VA claims, Medical transport","English, Spanish",Yes,Tue-Thu 9:00-3:00,Southern New Mexico
NewMexico,NM,VFW Post 7686 Farmington,Local Post,2810 North Sullivan Avenue,Farmington,87401,(505) 325-7686,vfwpost7686@yahoo.com,https://vfwpost7686.org,"Community service, Benefits","English, Spanish, Native American",No,Wed-Sun 12:00-8:00,Four Corners region
NewMexico,NM,VVA New Mexico State Council,State HQ,PO Box 50515,Albuquerque,87181,(505) 268-8387,vvanewmexico@gmail.com,https://vvanm.org,"Benefits, Agent Orange, PTSD","English, Spanish, Native American",Yes,By appointment,Vietnam veterans services
NewMexico,NM,New Mexico Department of Veterans Services,State Agency,407 Galisteo Street Room 142,Santa Fe,87501,(505) 827-6300,info@nmdvs.org,https://www.nmdvs.org,"State benefits, Claims, Cemetery","English, Spanish, Native American",Yes,Mon-Fri 8:00-5:00,State veterans department
NewYork,NY,VFW Department of New York,State HQ,69 Sand Creek Road,Albany,12205,(518) 463-7427,office@vfwny.com,https://vfwny.com,"Claims assistance, Benefits counseling, Employment services","English, Spanish, Chinese",No,Mon-Fri 8:00-5:00,State headquarters
NewYork,NY,American Legion Department of New York,State HQ,112 State Street Suite 1300,Albany,12207,(212) 807-3066,info@nylegion.net,https://nylegion.net,"VA claims, Employment, Community","English, Spanish, Chinese",Yes,By appointment,State service office
NewYork,NY,DAV New York Department,State HQ,162 Atlantic Avenue,Lynbrook,11563,(516) 887-5301,davnewyork@gmail.com,https://www.davny.org,"VA claims, Benefits assistance","English, Spanish, Chinese, Korean",No,Mon-Fri 8:00-4:00,Free claims assistance
NewYork,NY,AMVETS New York Department,State HQ,PO Box 2535,Albany,12220,(518) 426-2998,amvetsny@gmail.com,https://nyamvets.org,"Benefits, Employment, Transition","English, Spanish",No,Mon-Fri 9:00-5:00,Veteran support services
NewYork,NY,VFW Post 103 New York City,Local Post,29-01 Broadway,Queens,11106,(718) 728-0103,vfwpost103@gmail.com,https://vfwpost103.org,"Local support, VA referrals","English, Spanish, Chinese",No,Mon-Fri 10:00-9:00,NYC area
NewYork,NY,American Legion Post 2 Buffalo,Local Post,625 Main Street,Buffalo,14203,(716) 856-0001,alpost2buffalo@gmail.com,https://buffalopost2.org,"Community service, Benefits","English, Spanish",No,Mon-Fri 10:00-6:00,Western New York
NewYork,NY,DAV Syracuse Chapter,Regional Office,700 East Water Street,Syracuse,13210,(315) 476-8387,davsyracuse@gmail.com,https://davsyracuse.org,"VA claims, Medical transport","English, Spanish",Yes,Tue-Thu 9:00-3:00,Central New York
NewYork,NY,VFW Post 1519 Rochester,Local Post,153 Liberty Pole Way,Rochester,14604,(585) 546-1519,vfwpost1519@yahoo.com,https://vfwpost1519.org,"Community service, Benefits",English,No,Wed-Sun 12:00-8:00,Finger Lakes region
NewYork,NY,VVA New York State Council,State HQ,8 Queen Diana Lane,Queensbury,12804,(518) 338-8147,vvanewyork@gmail.com,https://www.nyvietnamvets.org,"Benefits, Agent Orange, PTSD","English, Spanish",Yes,By appointment,Vietnam veterans services
NewYork,NY,New York State Division of Veterans Affairs,State Agency,2 Empire State Plaza Suite 5001,Albany,12223,(518) 474-6114,veterans@veterans.ny.gov,https://veterans.ny.gov,"State benefits, Claims, Cemetery, Homes","English, Spanish, Chinese",Yes,Mon-Fri 8:30-4:30,State veterans division
NorthCarolina,NC,VFW Department of North Carolina,State HQ,401 North Edgeworth Street,Greensboro,27401,(336) 275-4868,office@ncvfw.org,https://ncvfw.org,"Claims assistance, Benefits counseling, Employment services","English, Spanish",No,Mon-Fri 8:00-5:00,State headquarters
NorthCarolina,NC,American Legion Department of North Carolina,State HQ,1313 Biggs Road,Cary,27511,(919) 832-7506,info@nclegion.org,https://www.nclegion.org,"VA claims, Employment, Community","English, Spanish",Yes,By appointment,State service office
NorthCarolina,NC,DAV North Carolina Department,State HQ,521 East Millbrook Road,Raleigh,27609,(919) 828-8387,davnorthcarolina@gmail.com,https://davnc.org,"VA claims, Benefits assistance","English, Spanish",No,Mon-Fri 8:00-4:00,Free claims assistance
NorthCarolina,NC,AMVETS North Carolina Department,State HQ,PO Box 37193,Raleigh,27627,(919) 662-2998,amvetsnc@gmail.com,https://amvetsnc.org,"Benefits, Employment, Transition","English, Spanish",No,Mon-Fri 9:00-5:00,Veteran support services
NorthCarolina,NC,VFW Post 2766 Charlotte,Local Post,2900 Oak Lake Boulevard,Charlotte,28208,(704) 394-2766,vfwpost2766@gmail.com,https://vfwpost2766.org,"Local support, VA referrals","English, Spanish",No,Mon-Fri 10:00-9:00,Metro Charlotte
NorthCarolina,NC,American Legion Post 6 Raleigh,Local Post,1412 Hillsborough Street,Raleigh,27605,(919) 832-4451,alpost6raleigh@gmail.com,https://raleighpost6.org,"Community service, Benefits",English,No,Mon-Fri 10:00-6:00,State capital location
NorthCarolina,NC,DAV Wilmington Chapter,Regional Office,2801 South 17th Street,Wilmington,28401,(910) 343-8387,davwilmington@gmail.com,https://davwilmington.org,"VA claims, Medical transport","English, Spanish",Yes,Tue-Thu 9:00-3:00,Coastal North Carolina
NorthCarolina,NC,VFW Post 1230 Fayetteville,Local Post,829 Arsenal Avenue,Fayetteville,28305,(910) 483-1230,vfwpost1230@yahoo.com,https://vfwpost1230.org,"Community service, Benefits",English,No,Wed-Sun 12:00-8:00,Fort Liberty area
NorthCarolina,NC,VVA North Carolina State Council,State HQ,PO Box 90386,Durham,27708,(919) 489-8387,vvanorthcarolina@gmail.com,https://vvanc.org,"Benefits, Agent Orange, PTSD","English, Spanish",Yes,By appointment,Vietnam veterans services
NorthCarolina,NC,North Carolina Division of Veterans Affairs,State Agency,1315 Mail Service Center,Raleigh,27699,(919) 733-3851,ncveterans@milvets.nc.gov,https://www.milvets.nc.gov,"State benefits, Claims, Cemetery","English, Spanish",Yes,Mon-Fri 8:00-5:00,State veterans division
NorthDakota,ND,VFW Department of North Dakota,State HQ,126 North 3rd Street,Bismarck,58501,(701) 222-8545,office@vfwnd.org,https://vfwnd.org,"Claims assistance, Benefits counseling, Employment services","English, Native American",No,Mon-Fri 8:00-4:30,State headquarters
NorthDakota,ND,American Legion Department of North Dakota,State HQ,405 West Main Avenue Suite 206,West Fargo,58078,(701) 293-3120,info@ndlegion.org,https://www.ndlegion.org,"VA claims, Employment, Community","English, Native American",Yes,By appointment,State service office
NorthDakota,ND,DAV North Dakota Department,State HQ,3310 Fiechtner Drive Suite E,Fargo,58103,(701) 232-8387,davnorthdakota@gmail.com,https://davnd.org,"VA claims, Benefits assistance","English, Native American",No,Mon-Fri 8:00-4:00,Free claims assistance
NorthDakota,ND,AMVETS North Dakota Department,State HQ,PO Box 2583,Bismarck,58502,(701) 223-2998,amvetsnd@gmail.com,https://amvetsnd.org,"Benefits, Employment, Transition",English,No,Mon-Fri 9:00-5:00,Veteran support services
NorthDakota,ND,VFW Post 753 Fargo,Local Post,301 Broadway North,Fargo,58102,(701) 232-0753,vfwpost753@gmail.com,https://vfwpost753.org,"Local support, VA referrals",English,No,Mon-Sat 11:00-9:00,Eastern North Dakota
NorthDakota,ND,American Legion Post 1 Bismarck,Local Post,619 North 5th Street,Bismarck,58501,(701) 223-6310,alpost1bismarck@gmail.com,https://bismarckpost1.org,"Community service, Benefits","English, Native American",No,Mon-Fri 10:00-6:00,State capital location
NorthDakota,ND,DAV Grand Forks Chapter,Regional Office,2101 South 20th Street,Grand Forks,58201,(701) 772-8387,davgrandforks@gmail.com,https://davgrandforks.org,"VA claims, Medical transport","English, Native American",Yes,Tue-Thu 9:00-3:00,Northeast North Dakota
NorthDakota,ND,VFW Post 2590 Minot,Local Post,1217 2nd Street SE,Minot,58701,(701) 852-2590,vfwpost2590@yahoo.com,https://vfwpost2590.org,"Community service, Benefits",English,No,Wed-Sun 12:00-8:00,Minot AFB area
NorthDakota,ND,VVA North Dakota State Council,State HQ,PO Box 2583,Bismarck,58502,(701) 223-8387,vvanorthdakota@gmail.com,https://vvand.org,"Benefits, Agent Orange, PTSD","English, Native American",Yes,By appointment,Vietnam veterans services
NorthDakota,ND,North Dakota Department of Veterans Affairs,State Agency,PO Box 9003,Fargo,58106,(701) 239-7165,ndva@nd.gov,https://www.nd.gov/veterans,"State benefits, Claims, Homes","English, Native American",Yes,Mon-Fri 8:00-5:00,State veterans department
Ohio,OH,VFW Department of Ohio,State HQ,35 East Chestnut Street Suite 506,Columbus,43215,(614) 224-1838,office@vfwoh.org,https://vfwoh.org,"Claims assistance, Benefits counseling, Employment services","English, Spanish",No,Mon-Fri 8:00-5:00,State headquarters
Ohio,OH,American Legion Department of Ohio,State HQ,60 Big Run Road,Delaware,43015,(740) 362-7478,info@ohiolegion.com,https://www.ohiolegion.com,"VA claims, Employment, Community","English, Spanish",Yes,By appointment,State service office
Ohio,OH,DAV Department of Ohio,State HQ,PO Box 15220,Columbus,43215,(614) 221-3590,davohio@gmail.com,https://ohiodav.org,"VA claims, Benefits assistance","English, Spanish",No,Mon-Fri 8:00-4:00,Free claims assistance
Ohio,OH,AMVETS Ohio Department,State HQ,3950 Broadway,Grove City,43123,(614) 875-2998,amvetsoh@gmail.com,https://amvetsohio.org,"Benefits, Employment, Transition",English,No,Mon-Fri 9:00-5:00,Veteran support services
Ohio,OH,VFW Post 63 Cleveland,Local Post,3345 West 98th Street,Cleveland,44102,(216) 631-0063,vfwpost63@gmail.com,https://vfwpost63.org,"Local support, VA referrals","English, Spanish",No,Mon-Fri 10:00-9:00,Greater Cleveland
Ohio,OH,American Legion Post 12 Cincinnati,Local Post,2300 Chapline Street,Cincinnati,45214,(513) 471-1212,alpost12cinci@gmail.com,https://cincipost12.org,"Community service, Benefits",English,No,Mon-Fri 10:00-6:00,Southwest Ohio
Ohio,OH,DAV Toledo Chapter,Regional Office,3100 Glendale Avenue,Toledo,43614,(419) 381-8387,davtoledo@gmail.com,https://davtoledo.org,"VA claims, Medical transport","English, Spanish",Yes,Tue-Thu 9:00-3:00,Northwest Ohio
Ohio,OH,VFW Post 1165 Akron,Local Post,143 Portage Trail Extension West,Akron,44313,(330) 253-1165,vfwpost1165@yahoo.com,https://vfwpost1165.org,"Community service, Benefits",English,No,Wed-Sun 12:00-8:00,Summit County
Ohio,OH,VVA Ohio State Council,State HQ,PO Box 644,Westerville,43086,(614) 882-8387,vvaohio@gmail.com,https://vvaoh.org,"Benefits, Agent Orange, PTSD","English, Spanish",Yes,By appointment,Vietnam veterans services
Ohio,OH,Ohio Department of Veterans Services,State Agency,77 South High Street 7th Floor,Columbus,43215,(614) 644-0898,information@dvs.ohio.gov,https://dvs.ohio.gov,"State benefits, Claims, Healthcare, Cemetery, Homes","English, Spanish",Yes,Mon-Fri 8:00-5:00,State veterans department
Oklahoma,OK,VFW Department of Oklahoma,State HQ,4509 South Garnett Road,Tulsa,74146,(918) 664-3800,office@okvfw.org,https://okvfw.org,"Claims assistance, Benefits counseling, Employment services","English, Spanish, Native American",No,Mon-Fri 8:00-5:00,State headquarters
Oklahoma,OK,American Legion Department of Oklahoma,State HQ,4040 North Lincoln Boulevard,Oklahoma City,73105,(405) 525-2121,info@oklegion.org,https://www.oklegion.org,"VA claims, Employment, Community","English, Spanish, Native American",Yes,By appointment,State service office
Oklahoma,OK,DAV Oklahoma Department,State HQ,125 South Main Street Suite 301,Tulsa,74103,(918) 585-8387,davoklahoma@gmail.com,https://davok.org,"VA claims, Benefits assistance","English, Spanish, Native American",No,Mon-Fri 8:00-4:00,Free claims assistance
Oklahoma,OK,AMVETS Oklahoma Department,State HQ,PO Box 55065,Tulsa,74155,(918) 437-2998,amvetsok@gmail.com,https://amvetsok.org,"Benefits, Employment, Transition","English, Native American",No,Mon-Fri 9:00-5:00,Veteran support services
Oklahoma,OK,VFW Post 5263 Oklahoma City,Local Post,3805 South Boulevard,Edmond,73013,(405) 348-5263,vfwpost5263@gmail.com,https://vfwpost5263.org,"Local support, VA referrals","English, Spanish, Native American",No,Mon-Fri 10:00-9:00,Metro Oklahoma City
Oklahoma,OK,American Legion Post 1 Tulsa,Local Post,1045 East 8th Street,Tulsa,74120,(918) 587-1001,alpost1tulsa@gmail.com,https://tulsapost1.org,"Community service, Benefits","English, Spanish, Native American",No,Mon-Fri 10:00-6:00,Northeast Oklahoma
Oklahoma,OK,DAV Lawton Chapter,Regional Office,4101 Southeast 41st Street,Lawton,73501,(580) 355-8387,davlawton@gmail.com,https://davlawton.org,"VA claims, Medical transport","English, Native American",Yes,Tue-Thu 9:00-3:00,Southwest Oklahoma
Oklahoma,OK,VFW Post 577 Norman,Local Post,220 West Main Street,Norman,73069,(405) 329-0577,vfwpost577@yahoo.com,https://vfwpost577.org,"Community service, Benefits","English, Native American",No,Wed-Sun 12:00-8:00,Cleveland County
Oklahoma,OK,VVA Oklahoma State Council,State HQ,PO Box 1206,Edmond,73083,(405) 340-8387,vvaoklahoma@gmail.com,https://vvaok.org,"Benefits, Agent Orange, PTSD","English, Spanish, Native American",Yes,By appointment,Vietnam veterans services
Oklahoma,OK,Oklahoma Department of Veterans Affairs,State Agency,2311 North Central Avenue,Oklahoma City,73105,(405) 521-3684,info@odva.ok.gov,https://www.ok.gov/veterans,"State benefits, Claims, Healthcare, Cemetery","English, Spanish, Native American",Yes,Mon-Fri 8:00-5:00,State veterans department
Oregon,OR,VFW Department of Oregon,State HQ,9020 SE Jannsen Road,Clackamas,97015,(503) 557-3144,office@vfwor.org,https://vfwor.org,"Claims assistance, Benefits counseling, Employment services","English, Spanish",No,Mon-Fri 8:00-5:00,State headquarters
Oregon,OR,American Legion Department of Oregon,State HQ,30450 SW Parkway Avenue,Wilsonville,97070,(503) 685-5006,info@orlegion.org,https://www.orlegion.org,"VA claims, Employment, Community","English, Spanish",Yes,By appointment,State service office
Oregon,OR,DAV Oregon Department,State HQ,100 SW Main Street Suite 720,Portland,97204,(503) 221-8387,davoregon@gmail.com,https://davor.org,"VA claims, Benefits assistance","English, Spanish",No,Mon-Fri 8:00-4:00,Free claims assistance
Oregon,OR,AMVETS Oregon Department,State HQ,PO Box 13430,Salem,97309,(503) 364-2998,amvetsor@gmail.com,https://amvetsor.org,"Benefits, Employment, Transition",English,No,Mon-Fri 9:00-5:00,Veteran support services
Oregon,OR,VFW Post 3452 Portland,Local Post,4607 SE Division Street,Portland,97206,(503) 231-3452,vfwpost3452@gmail.com,https://vfwpost3452.org,"Local support, VA referrals","English, Spanish",No,Mon-Fri 10:00-9:00,Metro Portland
Oregon,OR,American Legion Post 9 Eugene,Local Post,80 Centennial Loop,Eugene,97401,(541) 342-1005,alpost9eugene@gmail.com,https://eugenepost9.org,"Community service, Benefits",English,No,Mon-Fri 10:00-6:00,Willamette Valley
Oregon,OR,DAV Salem Chapter,Regional Office,555 Court Street NE Suite 6025,Salem,97301,(503) 373-8387,davsalem@gmail.com,https://davsalem.org,"VA claims, Medical transport","English, Spanish",Yes,Tue-Thu 9:00-3:00,Marion County
Oregon,OR,VFW Post 1324 Bend,Local Post,63836 North Highway 97,Bend,97703,(541) 382-1324,vfwpost1324@yahoo.com,https://vfwpost1324.org,"Community service, Benefits",English,No,Wed-Sun 12:00-8:00,Central Oregon
Oregon,OR,VVA Oregon State Council,State HQ,PO Box 867,Oregon City,97045,(503) 655-8387,vvaoregon@gmail.com,https://vvaor.org,"Benefits, Agent Orange, PTSD","English, Spanish",Yes,By appointment,Vietnam veterans services
Oregon,OR,Oregon Department of Veterans Affairs,State Agency,700 Summer Street NE Suite 150,Salem,97301,(503) 373-2085,info@odva.state.or.us,https://www.oregon.gov/odva,"State benefits, Claims, Healthcare, Cemetery, Homes","English, Spanish",Yes,Mon-Fri 8:00-5:00,State veterans department
Pennsylvania,PA,VFW Department of Pennsylvania,State HQ,4002 Fenton Avenue,Harrisburg,17109,(717) 234-7927,office@vfwpa.org,https://vfwpa.org,"Claims assistance, Benefits counseling, Employment services","English, Spanish",No,Mon-Fri 8:00-5:00,State headquarters
Pennsylvania,PA,American Legion Department of Pennsylvania,State HQ,2001 North Front Street,Harrisburg,17102,(717) 730-9100,info@pa-legion.com,https://www.pa-legion.com,"VA claims, Employment, Community","English, Spanish",Yes,By appointment,State service office
Pennsylvania,PA,DAV Pennsylvania Department,State HQ,110 Hamilton Court,Baden,15005,(724) 869-3387,davpennsylvania@gmail.com,https://www.vva-pa.org,"VA claims, Benefits assistance","English, Spanish",No,Mon-Fri 8:00-4:00,Free claims assistance
Pennsylvania,PA,AMVETS Pennsylvania Department,State HQ,1306 William Flynn Highway,Glenshaw,15116,(412) 487-2998,amvetspa@gmail.com,https://amvetspa.org,"Benefits, Employment, Transition",English,No,Mon-Fri 9:00-5:00,Veteran support services
Pennsylvania,PA,VFW Post 100 Philadelphia,Local Post,9812 Old Bustleton Avenue,Philadelphia,19115,(215) 673-0100,vfwpost100@gmail.com,https://vfwpost100.org,"Local support, VA referrals","English, Spanish",No,Mon-Fri 10:00-9:00,Philadelphia area
Pennsylvania,PA,American Legion Post 5 Pittsburgh,Local Post,226 North Craig Street,Pittsburgh,15213,(412) 682-2005,alpost5pgh@gmail.com,https://pghpost5.org,"Community service, Benefits",English,No,Mon-Fri 10:00-6:00,Western Pennsylvania
Pennsylvania,PA,DAV Wilkes-Barre Chapter,Regional Office,11 Church Street Room 324,Wilkes-Barre,18701,(570) 826-8387,davwilkesbarre@gmail.com,https://davwilkesbarre.org,"VA claims, Medical transport","English, Spanish",Yes,Tue-Thu 9:00-3:00,Northeast Pennsylvania
Pennsylvania,PA,VFW Post 470 Erie,Local Post,3925 Peach Street,Erie,16509,(814) 864-0470,vfwpost470@yahoo.com,https://vfwpost470.org,"Community service, Benefits",English,No,Wed-Sun 12:00-8:00,Northwest Pennsylvania
Pennsylvania,PA,VVA Pennsylvania State Council,State HQ,110 Hamilton Court,Baden,15005,(724) 869-3387,vvapennsylvania@gmail.com,https://www.vva-pa.org,"Benefits, Agent Orange, PTSD","English, Spanish",Yes,By appointment,Vietnam veterans services
Pennsylvania,PA,Pennsylvania Department of Military and Veterans Affairs,State Agency,Building 0-47 Fort Indiantown Gap,Annville,17003,(717) 861-8503,RA-DMVAOVR@pa.gov,https://www.dmva.pa.gov,"State benefits, Claims, Healthcare, Cemetery, Homes","English, Spanish",Yes,Mon-Fri 8:00-4:30,State veterans affairs
RhodeIsland,RI,VFW Department of Rhode Island,State HQ,1418 Hartford Avenue,Johnston,02919,(401) 421-5848,info@vfwri.org,https://vfwri.org,"Claims assistance, Benefits counseling, Employment services","English, Spanish, Portuguese",No,Mon-Fri 8:00-4:30,State headquarters
RhodeIsland,RI,American Legion Department of Rhode Island,State HQ,2 Sadler Street,Providence,02903,(401) 421-5257,info@rilegion.org,https://www.rilegion.org,"VA claims, Employment, Community","English, Spanish, Portuguese",Yes,By appointment,State service office
RhodeIsland,RI,DAV Rhode Island Department,State HQ,1010 Hartford Avenue,Providence,02909,(401) 461-8387,davrhodeisland@gmail.com,https://davri.org,"VA claims, Benefits assistance","English, Spanish, Portuguese",No,Mon-Fri 8:00-4:00,Free claims assistance
RhodeIsland,RI,AMVETS Rhode Island Department,State HQ,PO Box 9276,Warwick,02889,(401) 739-2998,amvetsri@gmail.com,https://amvetsri.org,"Benefits, Employment, Transition","English, Portuguese",No,Mon-Fri 9:00-5:00,Veteran support services
RhodeIsland,RI,VFW Post 8 Providence,Local Post,1418 Hartford Avenue,Johnston,02919,(401) 421-5848,vfwpost8@gmail.com,https://vfwpost8.org,"Local support, VA referrals","English, Spanish, Portuguese",No,Mon-Sat 11:00-9:00,Greater Providence
RhodeIsland,RI,American Legion Post 10 Cranston,Local Post,1097 Cranston Street,Cranston,02920,(401) 942-8910,alpost10cranston@gmail.com,https://cranstonpost10.org,"Community service, Benefits","English, Portuguese",No,Mon-Fri 10:00-6:00,Central Rhode Island
RhodeIsland,RI,DAV Warwick Chapter,Regional Office,321 South County Trail,Warwick,02886,(401) 738-8387,davwarwick@gmail.com,https://davwarwick.org,"VA claims, Medical transport","English, Spanish, Portuguese",Yes,Tue-Thu 9:00-3:00,Kent County
RhodeIsland,RI,VFW Post 25 Newport,Local Post,170 Broadway,Newport,02840,(401) 847-0025,vfwpost25@yahoo.com,https://vfwpost25.org,"Community service, Benefits",English,No,Wed-Sun 12:00-8:00,Aquidneck Island
RhodeIsland,RI,VVA Rhode Island Chapter 1,Local Post,PO Box 71,Warwick,02887,(401) 738-8387,vvarhodeisland@gmail.com,https://vvari.org,"Benefits, Agent Orange, PTSD","English, Portuguese",Yes,By appointment,Vietnam veterans services
RhodeIsland,RI,Rhode Island Office of Veterans Services,State Agency,825 Waterman Avenue Building 69-1,East Providence,02914,(401) 921-2119,ovs@ova.ri.gov,https://veterans.ri.gov,"State benefits, Claims, Cemetery","English, Spanish, Portuguese",Yes,Mon-Fri 8:30-4:30,State veterans office
SouthCarolina,SC,VFW Department of South Carolina,State HQ,930 Richland Street,Columbia,29201,(803) 779-3225,office@scvfw.org,https://scvfw.org,"Claims assistance, Benefits counseling, Employment services","English, Spanish",No,Mon-Fri 8:00-5:00,State headquarters
SouthCarolina,SC,American Legion Department of South Carolina,State HQ,132 Pickens Street,Columbia,29205,(803) 799-3500,info@sclegion.org,https://www.sclegion.org,"VA claims, Employment, Community","English, Spanish",Yes,By appointment,State service office
SouthCarolina,SC,DAV South Carolina Department,State HQ,1293 Professional Drive Suite D,Myrtle Beach,29577,(843) 293-8387,davsouthcarolina@gmail.com,https://davsc.org,"VA claims, Benefits assistance","English, Spanish",No,Mon-Fri 8:00-4:00,Free claims assistance
SouthCarolina,SC,AMVETS South Carolina Department,State HQ,PO Box 71093,North Charleston,29415,(843) 552-2998,amvetssc@gmail.com,https://amvetssc.org,"Benefits, Employment, Transition",English,No,Mon-Fri 9:00-5:00,Veteran support services
SouthCarolina,SC,VFW Post 3433 Charleston,Local Post,2966 West Montague Avenue,Charleston,29418,(843) 554-3433,vfwpost3433@gmail.com,https://vfwpost3433.org,"Local support, VA referrals","English, Spanish",No,Mon-Fri 10:00-9:00,Lowcountry
SouthCarolina,SC,American Legion Post 15 Columbia,Local Post,1708 College Street,Columbia,29201,(803) 799-9015,alpost15columbia@gmail.com,https://columbiapost15.org,"Community service, Benefits",English,No,Mon-Fri 10:00-6:00,State capital location
SouthCarolina,SC,DAV Greenville Chapter,Regional Office,301 University Ridge Suite 2600,Greenville,29601,(864) 232-8387,davgreenville@gmail.com,https://davgreenville.org,"VA claims, Medical transport","English, Spanish",Yes,Tue-Thu 9:00-3:00,Upstate South Carolina
SouthCarolina,SC,VFW Post 3204 Myrtle Beach,Local Post,1015 Broadway Street,Myrtle Beach,29577,(843) 448-3204,vfwpost3204@yahoo.com,https://vfwpost3204.org,"Community service, Benefits",English,No,Wed-Sun 12:00-8:00,Grand Strand
SouthCarolina,SC,VVA South Carolina State Council,State HQ,PO Box 61424,Charleston,29419,(843) 763-8387,vvasouthcarolina@gmail.com,https://vvasc.org,"Benefits, Agent Orange, PTSD","English, Spanish",Yes,By appointment,Vietnam veterans services
SouthCarolina,SC,South Carolina Division of Veterans Affairs,State Agency,1205 Pendleton Street Suite 463,Columbia,29201,(803) 734-0200,va@admin.sc.gov,https://veterans.sc.gov,"State benefits, Claims, Cemetery","English, Spanish",Yes,Mon-Fri 8:30-5:00,State veterans division
SouthDakota,SD,VFW Department of South Dakota,State HQ,PO Box 89239,Sioux Falls,57109,(605) 332-4100,office@sdvfw.org,https://sdvfw.org,"Claims assistance, Benefits counseling, Employment services","English, Native American",No,Mon-Fri 8:00-4:30,State headquarters
SouthDakota,SD,American Legion Department of South Dakota,State HQ,PO Box 67,Watertown,57201,(605) 886-3604,info@sdlegion.org,https://www.sdlegion.org,"VA claims, Employment, Community","English, Native American",Yes,By appointment,State service office
SouthDakota,SD,DAV South Dakota Department,State HQ,PO Box 88726,Sioux Falls,57109,(605) 336-8387,davsouthdakota@gmail.com,https://davsd.org,"VA claims, Benefits assistance","English, Native American",No,Mon-Fri 8:00-4:00,Free claims assistance
SouthDakota,SD,AMVETS South Dakota Department,State HQ,PO Box 1293,Rapid City,57709,(605) 343-2998,amvetssd@gmail.com,https://amvetssd.org,"Benefits, Employment, Transition",English,No,Mon-Fri 9:00-5:00,Veteran support services
SouthDakota,SD,VFW Post 628 Sioux Falls,Local Post,300 West 41st Street,Sioux Falls,57105,(605) 338-0628,vfwpost628@gmail.com,https://vfwpost628.org,"Local support, VA referrals","English, Native American",No,Mon-Sat 11:00-9:00,Eastern South Dakota
SouthDakota,SD,American Legion Post 15 Rapid City,Local Post,545 Mount Rushmore Road,Rapid City,57701,(605) 342-0115,alpost15rc@gmail.com,https://rcpost15.org,"Community service, Benefits","English, Native American",No,Mon-Fri 10:00-6:00,Western South Dakota
SouthDakota,SD,DAV Aberdeen Chapter,Regional Office,2313 16th Avenue NE,Aberdeen,57401,(605) 225-8387,davaberdeen@gmail.com,https://davaberdeen.org,"VA claims, Medical transport","English, Native American",Yes,Tue-Thu 9:00-3:00,Northeast South Dakota
SouthDakota,SD,VFW Post 5969 Pierre,Local Post,204 East Capitol Avenue,Pierre,57501,(605) 224-5969,vfwpost5969@yahoo.com,https://vfwpost5969.org,"Community service, Benefits","English, Native American",No,Wed-Sun 12:00-8:00,State capital area
SouthDakota,SD,VVA South Dakota Chapter 1,Local Post,PO Box 88726,Sioux Falls,57109,(605) 336-8387,vvasouthdakota@gmail.com,https://vvasd.org,"Benefits, Agent Orange, PTSD","English, Native American",Yes,By appointment,Vietnam veterans services
SouthDakota,SD,South Dakota Department of Veterans Affairs,State Agency,425 East Capitol Avenue,Pierre,57501,(605) 773-3269,veteransaffairs@state.sd.us,https://vetaffairs.sd.gov,"State benefits, Claims, Veterans Home","English, Native American",Yes,Mon-Fri 8:00-5:00,State veterans department
Tennessee,TN,VFW Department of Tennessee,State HQ,2506 Elm Hill Pike,Nashville,37214,(615) 889-8387,office@vfwtn.org,https://vfwtn.org,"Claims assistance, Benefits counseling, Employment services","English, Spanish",No,Mon-Fri 8:00-5:00,State headquarters
Tennessee,TN,American Legion Department of Tennessee,State HQ,215 8th Avenue North,Nashville,37203,(615) 254-0568,info@tnlegion.org,https://www.tnlegion.org,"VA claims, Employment, Community","English, Spanish",Yes,By appointment,State service office
Tennessee,TN,DAV Tennessee Department,State HQ,PO Box 2765,Nashville,37219,(615) 315-8387,davtennessee@gmail.com,https://davtn.org,"VA claims, Benefits assistance","English, Spanish",No,Mon-Fri 8:00-4:00,Free claims assistance
Tennessee,TN,AMVETS Tennessee Department,State HQ,PO Box 120550,Nashville,37212,(615) 918-0550,amvetstn@gmail.com,http://amvets-tennessee.org,"Benefits, Employment, Transition",English,No,Mon-Fri 9:00-5:00,Veteran support services
Tennessee,TN,VFW Post 4295 Memphis,Local Post,4739 Navy Road,Millington,38053,(901) 872-4295,vfwpost4295@gmail.com,https://vfwpost4295.org,"Local support, VA referrals","English, Spanish",No,Mon-Fri 10:00-9:00,West Tennessee
Tennessee,TN,American Legion Post 5 Nashville,Local Post,215 8th Avenue North,Nashville,37203,(615) 254-0568,alpost5nashville@gmail.com,https://nashpost5.org,"Community service, Benefits",English,No,Mon-Fri 10:00-6:00,State capital location
Tennessee,TN,DAV Knoxville Chapter,Regional Office,800 Market Street Suite 301,Knoxville,37902,(865) 544-8387,davknoxville@gmail.com,https://davknoxville.org,"VA claims, Medical transport","English, Spanish",Yes,Tue-Thu 9:00-3:00,East Tennessee
Tennessee,TN,VFW Post 1970 Chattanooga,Local Post,5511 Highway 153,Hixson,37343,(423) 875-1970,vfwpost1970@yahoo.com,https://vfwpost1970.org,"Community service, Benefits",English,No,Wed-Sun 12:00-8:00,Southeast Tennessee
Tennessee,TN,VVA Tennessee State Council,State HQ,PO Box 100126,Nashville,37210,(615) 883-8387,vvatennessee@gmail.com,https://vvatn.org,"Benefits, Agent Orange, PTSD","English, Spanish",Yes,By appointment,Vietnam veterans services
Tennessee,TN,Tennessee Department of Veterans Services,State Agency,Davy Crockett Tower 500 James Robertson Parkway,Nashville,37243,(615) 741-2931,veterans.affairs@tn.gov,https://www.tn.gov/veteran,"State benefits, Claims, Cemetery, Homes","English, Spanish",Yes,Mon-Fri 8:00-4:30,State veterans department
Texas,TX,VFW Department of Texas,State HQ,8503 North IH 35,Austin,78753,(512) 834-8535,support@texasvfw.org,https://www.texasvfw.org,"Claims assistance, Benefits counseling, Employment services","English, Spanish",No,Mon-Fri 8:00-5:00,State headquarters
Texas,TX,American Legion Department of Texas,State HQ,PO Box 140527,Austin,78714,(512) 472-4138,txlegion@txlegion.org,https://txlegion.org,"VA claims, Employment, Community","English, Spanish",Yes,By appointment,State service office
Texas,TX,DAV Texas Department,State HQ,5430 Fredericksburg Road,San Antonio,78229,(210) 699-8387,davtexas@gmail.com,https://davtx.org,"VA claims, Benefits assistance","English, Spanish",No,Mon-Fri 8:00-4:00,Free claims assistance
Texas,TX,AMVETS Texas Department,State HQ,PO Box 150549,Austin,78715,(512) 441-2998,amvetstx@gmail.com,https://amvetstexas.org,"Benefits, Employment, Transition","English, Spanish",No,Mon-Fri 9:00-5:00,Veteran support services
Texas,TX,VFW Post 76 Houston,Local Post,1040 East 20th Street,Houston,77008,(713) 861-9060,vfwpost76@gmail.com,https://vfwpost76.org,"Local support, VA referrals","English, Spanish",No,Mon-Fri 10:00-9:00,Harris County
Texas,TX,American Legion Post 1 Dallas,Local Post,3221 Turtle Creek Boulevard,Dallas,75219,(214) 521-1001,alpost1dallas@gmail.com,https://dallaspost1.org,"Community service, Benefits","English, Spanish",No,Mon-Fri 10:00-6:00,North Texas
Texas,TX,DAV El Paso Chapter,Regional Office,6500 Boeing Drive,El Paso,79925,(915) 772-8387,davelpaso@gmail.com,https://davelpaso.org,"VA claims, Medical transport","English, Spanish",Yes,Tue-Thu 9:00-3:00,West Texas
Texas,TX,VFW Post 8925 San Antonio,Local Post,822 South Alamo Street,San Antonio,78205,(210) 223-8925,vfwpost8925@yahoo.com,https://vfwpost8925.org,"Community service, Benefits","English, Spanish",No,Wed-Sun 12:00-8:00,Bexar County
Texas,TX,VVA Texas State Council,State HQ,PO Box 224872,Dallas,75222,(214) 221-8387,vvatexas@gmail.com,https://vvatx.org,"Benefits, Agent Orange, PTSD","English, Spanish",Yes,By appointment,Vietnam veterans services
Texas,TX,Texas Veterans Commission,State Agency,1700 North Congress Avenue,Austin,78701,(512) 463-5538,info@tvc.texas.gov,https://www.tvc.texas.gov,"State benefits, Claims, Healthcare, Education, Employment","English, Spanish",Yes,Mon-Fri 8:00-5:00,State veterans commission
Utah,UT,VFW Department of Utah,State HQ,8885 South Redwood Road,West Jordan,84088,(801) 562-0242,office@vfwutah.org,https://vfwutah.org,"Claims assistance, Benefits counseling, Employment services","English, Spanish",No,Mon-Fri 8:00-5:00,State headquarters
Utah,UT,American Legion Department of Utah,State HQ,853 South Redwood Road,Salt Lake City,84104,(801) 978-9100,info@utalegion.org,https://www.utalegion.org,"VA claims, Employment, Community",English,Yes,By appointment,State service office
Utah,UT,DAV Utah Department,State HQ,550 Foothill Drive Room 203,Salt Lake City,84148,(801) 584-8387,davutah@gmail.com,https://davutah.org,"VA claims, Benefits assistance","English, Spanish",No,Mon-Fri 8:00-4:00,Free claims assistance
Utah,UT,AMVETS Utah Department,State HQ,PO Box 27113,Salt Lake City,84127,(801) 262-2998,amvetsut@gmail.com,https://amvetsut.org,"Benefits, Employment, Transition",English,No,Mon-Fri 9:00-5:00,Veteran support services
Utah,UT,VFW Post 60 Salt Lake City,Local Post,2660 South Main Street,Salt Lake City,84115,(801) 484-0060,vfwpost60@gmail.com,https://vfwpost60.org,"Local support, VA referrals","English, Spanish",No,Mon-Sat 11:00-9:00,Salt Lake Valley
Utah,UT,American Legion Post 9 Ogden,Local Post,1785 Lincoln Avenue,Ogden,84401,(801) 392-7221,alpost9ogden@gmail.com,https://ogdenpost9.org,"Community service, Benefits",English,No,Mon-Fri 10:00-6:00,Northern Utah
Utah,UT,DAV Provo Chapter,Regional Office,550 Foothill Boulevard,Salt Lake City,84113,(801) 587-8387,davprovo@gmail.com,https://davprovo.org,"VA claims, Medical transport","English, Spanish",Yes,Tue-Thu 9:00-3:00,Utah Valley
Utah,UT,VFW Post 4407 St. George,Local Post,49 North Main Street,St. George,84770,(435) 628-4407,vfwpost4407@yahoo.com,https://vfwpost4407.org,"Community service, Benefits",English,No,Wed-Sun 12:00-8:00,Southern Utah
Utah,UT,VVA Utah Chapter 1,Local Post,PO Box 526411,Salt Lake City,84152,(801) 580-8387,vvautah@gmail.com,https://vvaut.org,"Benefits, Agent Orange, PTSD","English, Spanish",Yes,By appointment,Vietnam veterans services
Utah,UT,Utah Department of Veterans and Military Affairs,State Agency,550 Foothill Drive Room 202,Salt Lake City,84113,(801) 326-2372,va@utah.gov,https://veterans.utah.gov,"State benefits, Claims, Cemetery","English, Spanish",Yes,Mon-Fri 8:00-5:00,State veterans department
Vermont,VT,VFW Department of Vermont,State HQ,126 State Street,Montpelier,05602,(802) 828-9845,office@vfwvermont.org,https://vfwvermont.org,"Claims assistance, Benefits counseling, Employment services",English,No,Mon-Fri 8:00-4:30,State headquarters
Vermont,VT,American Legion Department of Vermont,State HQ,PO Box 396,Montpelier,05601,(802) 223-7131,info@vtlegion.org,https://www.vtlegion.org,"VA claims, Employment, Community",English,Yes,By appointment,State service office
Vermont,VT,DAV Vermont Department,State HQ,118 Tilley Drive,South Burlington,05403,(802) 862-8387,davvermont@gmail.com,https://davvt.org,"VA claims, Benefits assistance",English,No,Mon-Fri 8:00-4:00,Free claims assistance
Vermont,VT,AMVETS Vermont Department,State HQ,PO Box 3292,South Burlington,05407,(802) 658-2998,amvetsvt@gmail.com,https://amvetsvt.org,"Benefits, Employment, Transition",English,No,Mon-Fri 9:00-5:00,Veteran support services
Vermont,VT,VFW Post 891 Burlington,Local Post,13 Church Street,Burlington,05401,(802) 863-0891,vfwpost891@gmail.com,https://vfwpost891.org,"Local support, VA referrals",English,No,Mon-Sat 11:00-9:00,Chittenden County
Vermont,VT,American Legion Post 3 Barre,Local Post,15 Washington Street,Barre,05641,(802) 476-3003,alpost3barre@gmail.com,https://barrepost3.org,"Community service, Benefits",English,No,Mon-Fri 10:00-6:00,Central Vermont
Vermont,VT,DAV Rutland Chapter,Regional Office,118 Tilley Drive,South Burlington,05403,(802) 773-8387,davrutland@gmail.com,https://davrutland.org,"VA claims, Medical transport",English,Yes,Tue-Thu 9:00-3:00,Rutland County
Vermont,VT,VFW Post 758 St. Albans,Local Post,20 Hathaway Street,St. Albans,05478,(802) 524-0758,vfwpost758@yahoo.com,https://vfwpost758.org,"Community service, Benefits",English,No,Wed-Sun 12:00-8:00,Northwest Vermont
Vermont,VT,VVA Vermont Chapter 1,Local Post,PO Box 1362,Montpelier,05601,(802) 223-8387,vvavermont@gmail.com,https://vvavt.org,"Benefits, Agent Orange, PTSD",English,Yes,By appointment,Vietnam veterans services
Vermont,VT,Vermont Office of Veterans Affairs,State Agency,118 State Street,Montpelier,05620,(802) 828-3379,vva@vermont.gov,https://veterans.vermont.gov,"State benefits, Claims, Cemetery",English,Yes,Mon-Fri 7:45-4:30,State veterans office
Virginia,VA,VFW Department of Virginia,State HQ,403 Lee Jackson Highway,Staunton,24401,(540) 886-8112,office@vfwva.org,https://vfwva.org,"Claims assistance, Benefits counseling, Employment services","English, Spanish",No,Mon-Fri 8:00-5:00,State headquarters
Virginia,VA,American Legion Department of Virginia,State HQ,1708 Commonwealth Avenue,Richmond,23230,(804) 353-6606,info@valgion.org,https://www.valgion.org,"VA claims, Employment, Community","English, Spanish",Yes,By appointment,State service office
Virginia,VA,DAV Virginia Department,State HQ,PO Box 1731,Richmond,23218,(804) 643-8387,davvirginia@gmail.com,https://www.virginiadav.org,"VA claims, Benefits assistance","English, Spanish",No,Mon-Fri 8:00-4:00,Free claims assistance
Virginia,VA,AMVETS Virginia Department,State HQ,PO Box 3382,Woodbridge,22195,(703) 491-2998,amvetsva@gmail.com,https://amvetsva.org,"Benefits, Employment, Transition",English,No,Mon-Fri 9:00-5:00,Veteran support services
Virginia,VA,VFW Post 9808 Virginia Beach,Local Post,4569 Princess Anne Road,Virginia Beach,23462,(757) 499-9808,vfwpost9808@gmail.com,https://vfwpost9808.org,"Local support, VA referrals","English, Spanish",No,Mon-Fri 10:00-9:00,Tidewater region
Virginia,VA,American Legion Post 24 Richmond,Local Post,1708 Commonwealth Avenue,Richmond,23230,(804) 355-3024,alpost24richmond@gmail.com,https://richmondpost24.org,"Community service, Benefits",English,No,Mon-Fri 10:00-6:00,State capital location
Virginia,VA,DAV Roanoke Chapter,Regional Office,705 Kenwood Drive,Salem,24153,(540) 389-8387,davroanoke@gmail.com,https://davroanoke.org,"VA claims, Medical transport","English, Spanish",Yes,Tue-Thu 9:00-3:00,Southwest Virginia
Virginia,VA,VFW Post 392 Alexandria,Local Post,1201 South Joyce Street,Arlington,22202,(703) 521-0392,vfwpost392@yahoo.com,https://vfwpost392.org,"Community service, Benefits",English,No,Wed-Sun 12:00-8:00,Northern Virginia
Virginia,VA,VVA Virginia State Council,State HQ,PO Box 71,Woodbridge,22194,(703) 491-8387,vvavirginia@gmail.com,https://www.virginiadav.org,"Benefits, Agent Orange, PTSD","English, Spanish",Yes,By appointment,Vietnam veterans services
Virginia,VA,Virginia Department of Veterans Services,State Agency,101 North 14th Street 17th Floor,Richmond,23219,(804) 786-0286,support@dvs.virginia.gov,https://www.dvs.virginia.gov,"State benefits, Claims, Education, Employment, Cemetery","English, Spanish",Yes,Mon-Fri 8:15-5:00,State veterans department
Washington,WA,VFW Department of Washington,State HQ,5213 Pacific Highway East,Fife,98424,(253) 922-2114,office@vfwwa.org,https://www.vfwwa.org,"Claims assistance, Benefits counseling, Employment services","English, Spanish",No,Mon-Fri 8:00-5:00,State headquarters
Washington,WA,American Legion Department of Washington,State HQ,3600 Ruddell Road SE,Lacey,98503,(360) 491-4373,info@walegion.org,https://walegion.org,"VA claims, Employment, Community","English, Spanish",Yes,By appointment,State service office
Washington,WA,DAV Washington Department,State HQ,PO Box 778,Vancouver,98666,(360) 759-8387,davwashington@gmail.com,https://davwa.org,"VA claims, Benefits assistance","English, Spanish",No,Mon-Fri 8:00-4:00,Free claims assistance
Washington,WA,AMVETS Washington Department,State HQ,PO Box 983,Olympia,98507,(360) 943-2998,amvetswa@gmail.com,https://amvetswa.org,"Benefits, Employment, Transition",English,No,Mon-Fri 9:00-5:00,Veteran support services
Washington,WA,VFW Post 239 Seattle,Local Post,416 Maynard Avenue South,Seattle,98104,(206) 624-0239,vfwpost239@gmail.com,https://vfwpost239.org,"Local support, VA referrals","English, Spanish",No,Mon-Fri 10:00-9:00,King County
Washington,WA,American Legion Post 79 Spokane,Local Post,1620 North Rebecca Street,Spokane,99217,(509) 328-0779,alpost79spokane@gmail.com,https://spokanepost79.org,"Community service, Benefits",English,No,Mon-Fri 10:00-6:00,Eastern Washington
Washington,WA,DAV Tacoma Chapter,Regional Office,1313 South Union Avenue,Tacoma,98405,(253) 272-8387,davtacoma@gmail.com,https://davtacoma.org,"VA claims, Medical transport","English, Spanish",Yes,Tue-Thu 9:00-3:00,Pierce County
Washington,WA,VFW Post 1040 Vancouver,Local Post,205 Northeast 88th Street,Vancouver,98665,(360) 693-1040,vfwpost1040@yahoo.com,https://vfwpost1040.org,"Community service, Benefits",English,No,Wed-Sun 12:00-8:00,Clark County
Washington,WA,VVA Washington State Council,State HQ,PO Box 983,Olympia,98507,(360) 357-8387,vvawashington@gmail.com,https://vvawa.org,"Benefits, Agent Orange, PTSD","English, Spanish",Yes,By appointment,Vietnam veterans services
Washington,WA,Washington Department of Veterans Affairs,State Agency,1102 Quince Street SE,Olympia,98504,(360) 725-2200,info@dva.wa.gov,https://www.dva.wa.gov,"State benefits, Claims, Cemetery, Homes","English, Spanish",Yes,Mon-Fri 8:00-5:00,State veterans department
WestVirginia,WV,VFW Department of West Virginia,State HQ,PO Box 3191,Charleston,25332,(304) 343-7574,office@vfwwv.org,https://vfwwv.org,"Claims assistance, Benefits counseling, Employment services",English,No,Mon-Fri 8:00-4:30,State headquarters
WestVirginia,WV,American Legion Department of West Virginia,State HQ,2016 Kanawha Boulevard East,Charleston,25311,(304) 343-7591,info@wvlegion.org,https://www.wvlegion.org,"VA claims, Employment, Community",English,Yes,By appointment,State service office
WestVirginia,WV,DAV West Virginia Department,State HQ,1100 Kanawha Boulevard East,Charleston,25301,(304) 343-8387,davwestvirginia@gmail.com,https://davwv.org,"VA claims, Benefits assistance","English, Spanish",No,Mon-Fri 8:00-4:00,Free claims assistance
WestVirginia,WV,AMVETS West Virginia Department,State HQ,PO Box 2152,Charleston,25328,(304) 925-2998,amvetswv@gmail.com,https://amvetswv.org,"Benefits, Employment, Transition",English,No,Mon-Fri 9:00-5:00,Veteran support services
WestVirginia,WV,VFW Post 9926 Huntington,Local Post,528 14th Street West,Huntington,25704,(304) 522-9926,vfwpost9926@gmail.com,https://vfwpost9926.org,"Local support, VA referrals",English,No,Mon-Sat 11:00-9:00,Cabell County
WestVirginia,WV,American Legion Post 20 Charleston,Local Post,804 Kanawha Boulevard West,Charleston,25302,(304) 345-0020,alpost20charleston@gmail.com,https://charlestonpost20.org,"Community service, Benefits",English,No,Mon-Fri 10:00-6:00,State capital location
WestVirginia,WV,DAV Parkersburg Chapter,Regional Office,1100 Kanawha Boulevard,Charleston,25301,(304) 485-8387,davparkersburg@gmail.com,https://davparkersburg.org,"VA claims, Medical transport",English,Yes,Tue-Thu 9:00-3:00,Mid-Ohio Valley
WestVirginia,WV,VFW Post 475 Morgantown,Local Post,160 Holland Avenue,Westover,26501,(304) 292-0475,vfwpost475@yahoo.com,https://vfwpost475.org,"Community service, Benefits",English,No,Wed-Sun 12:00-8:00,North central West Virginia
WestVirginia,WV,VVA West Virginia State Council,State HQ,PO Box 3191,Charleston,25332,(304) 343-8387,vvawestvirginia@gmail.com,https://vvawv.org,"Benefits, Agent Orange, PTSD",English,Yes,By appointment,Vietnam veterans services
WestVirginia,WV,West Virginia Department of Veterans Assistance,State Agency,1514-B Kanawha Boulevard East,Charleston,25311,(304) 558-3661,wvdva@wv.gov,https://veterans.wv.gov,"State benefits, Claims, Cemetery",English,Yes,Mon-Fri 8:30-5:00,State veterans department
Wisconsin,WI,VFW Department of Wisconsin,State HQ,2930 American Avenue,Madison,53704,(608) 221-5276,office@vfwwi.com,https://www.wisconsin.vfw.org,"Claims assistance, Benefits counseling, Employment services","English, Spanish, Hmong",No,Mon-Fri 8:00-5:00,State headquarters
Wisconsin,WI,American Legion Department of Wisconsin,State HQ,2930 American Avenue,Madison,53704,(608) 221-5285,info@wilegion.org,https://www.wilegion.org,"VA claims, Employment, Community","English, Hmong",Yes,By appointment,State service office
Wisconsin,WI,DAV Wisconsin Department,State HQ,811 East Washington Avenue Suite 210,Madison,53703,(608) 255-8387,davwisconsin@gmail.com,https://davwi.org,"VA claims, Benefits assistance","English, Spanish, Hmong",No,Mon-Fri 8:00-4:00,Free claims assistance
Wisconsin,WI,AMVETS Wisconsin Department,State HQ,PO Box 1082,Racine,53401,(262) 657-2998,amvetswi@gmail.com,https://amvets-wi.org,"Benefits, Employment, Transition",English,No,Mon-Fri 9:00-5:00,Veteran support services
Wisconsin,WI,VFW Post 2778 Milwaukee,Local Post,1716 West Lincoln Avenue,Milwaukee,53215,(414) 645-2778,vfwpost2778@gmail.com,https://vfwpost2778.org,"Local support, VA referrals","English, Spanish",No,Mon-Fri 10:00-9:00,Milwaukee County
Wisconsin,WI,American Legion Post 501 Madison,Local Post,2930 American Avenue,Madison,53704,(608) 249-2501,alpost501madison@gmail.com,https://madisonpost501.org,"Community service, Benefits","English, Hmong",No,Mon-Fri 10:00-6:00,State capital location
Wisconsin,WI,DAV Green Bay Chapter,Regional Office,124 North Oneida Street,Green Bay,54303,(920) 435-8387,davgreenbay@gmail.com,https://davgreenbay.org,"VA claims, Medical transport","English, Hmong",Yes,Tue-Thu 9:00-3:00,Northeast Wisconsin
Wisconsin,WI,VFW Post 1318 Kenosha,Local Post,7421 39th Avenue,Kenosha,53142,(262) 656-1318,vfwpost1318@yahoo.com,https://vfwpost1318.org,"Community service, Benefits",English,No,Wed-Sun 12:00-8:00,Southeast Wisconsin
Wisconsin,WI,VVA Wisconsin State Council,State HQ,1701 Wright Street,Madison,53704,(608) 242-8387,vvawisconsin@gmail.com,https://vvawi.org,"Benefits, Agent Orange, PTSD","English, Hmong",Yes,By appointment,Vietnam veterans services
Wisconsin,WI,Wisconsin Department of Veterans Affairs,State Agency,30 West Mifflin Street,Madison,53703,(608) 266-1311,wdvainfo@dva.wisconsin.gov,https://dva.wi.gov,"State benefits, Claims, Homes, Cemetery, Education","English, Hmong, Spanish",Yes,Mon-Fri 7:45-4:30,State veterans department
Wyoming,WY,VFW Department of Wyoming,State HQ,1712 Capitol Avenue,Cheyenne,82001,(307) 634-3617,office@vfwwy.org,https://vfwwy.org,"Claims assistance, Benefits counseling, Employment services","English, Spanish",No,Mon-Fri 8:00-4:30,State headquarters
Wyoming,WY,American Legion Department of Wyoming,State HQ,1320 Hugur Avenue,Cheyenne,82001,(307) 634-3035,info@wylegion.org,https://www.wylegion.org,"VA claims, Employment, Community",English,Yes,By appointment,State service office
Wyoming,WY,DAV Wyoming Department,State HQ,2360 East Pershing Boulevard,Cheyenne,82001,(307) 778-8387,davwyoming@gmail.com,https://davwy.org,"VA claims, Benefits assistance","English, Spanish",No,Mon-Fri 8:00-4:00,Free claims assistance
Wyoming,WY,AMVETS Wyoming Department,State HQ,PO Box 2354,Casper,82602,(307) 265-2998,amvetswy@gmail.com,https://amvetswy.org,"Benefits, Employment, Transition",English,No,Mon-Fri 9:00-5:00,Veteran support services
Wyoming,WY,VFW Post 1881 Casper,Local Post,1800 East K Street,Casper,82601,(307) 237-1881,vfwpost1881@gmail.com,https://vfwpost1881.org,"Local support, VA referrals",English,No,Mon-Sat 11:00-9:00,Central Wyoming
Wyoming,WY,American Legion Post 6 Laramie,Local Post,311 Ivinson Street,Laramie,82070,(307) 745-3014,alpost6laramie@gmail.com,https://laramiepost6.org,"Community service, Benefits",English,No,Mon-Fri 10:00-6:00,Southeast Wyoming
Wyoming,WY,DAV Gillette Chapter,Regional Office,2360 East Pershing Boulevard,Cheyenne,82001,(307) 682-8387,davgillette@gmail.com,https://davgillette.org,"VA claims, Medical transport",English,Yes,Tue-Thu 9:00-3:00,Northeast Wyoming
Wyoming,WY,VFW Post 2221 Rock Springs,Local Post,108 Broadway,Rock Springs,82901,(307) 362-2221,vfwpost2221@yahoo.com,https://vfwpost2221.org,"Community service, Benefits","English, Spanish",No,Wed-Sun 12:00-8:00,Southwest Wyoming
Wyoming,WY,VVA Wyoming Chapter 1,Local Post,PO Box 2354,Casper,82602,(307) 266-8387,vvawyoming@gmail.com,https://vvawy.org,"Benefits, Agent Orange, PTSD",English,Yes,By appointment,Vietnam veterans services
Wyoming,WY,Wyoming Veterans Commission,State Agency,5500 Bishop Boulevard,Cheyenne,82009,(307) 772-5145,wvc@wyo.gov,https://veterans.wyo.gov,"State benefits, Claims",English,Yes,Mon-Fri 8:00-5:00,State veterans commission
